{"type":"FeatureCollection","features":[{"type":"Feature","id":1,"properties":{"role":"area","name":"Athabasca Basin (Athabasca Supergroup)"},"geometry":{"type":"MultiPolygon","coordinates":[[[[-109.547093,57.779959],[-109.517599,57.796508],[-109.504181,57.806839],[-109.501482,57.810933],[-109.501979,57.814913],[-109.50379,57.816562],[-109.506809,57.817169],[-109.514872,57.817453],[-109.531298,57.816152],[-109.541813,57.813711],[-109.540767,57.817177],[-109.528699,57.829033],[-109.52278,57.833052],[-109.502549,57.84253],[-109.468548,57.860148],[-109.453494,57.873826],[-109.44656,57.87817],[-109.446641,57.884319],[-109.459744,57.887718],[-109.471364,57.888274],[-109.492695,57.886796],[-109.507351,57.884466],[-109.513088,57.884684],[-109.496675,57.89664],[-109.488509,57.905687],[-109.50147,57.912081],[-109.532286,57.912506],[-109.571178,57.914537],[-109.593062,57.912223],[-109.623195,57.90732],[-109.662132,57.898659],[-109.682527,57.896003],[-109.743393,57.885742],[-109.77221,57.881995],[-109.789081,57.884078],[-109.791067,57.885447],[-109.794239,57.890469],[-109.794311,57.896369],[-109.781925,57.905405],[-109.782379,57.908816],[-109.788783,57.91124],[-109.817484,57.912969],[-109.842955,57.916797],[-109.858275,57.915973],[-109.874953,57.910334],[-109.889331,57.900973],[-109.897387,57.894473],[-109.902926,57.885927],[-109.904545,57.873107],[-109.911663,57.856099],[-109.921599,57.850381],[-109.930836,57.850021],[-109.945255,57.850983],[-109.974156,57.842995],[-109.988997,57.836697],[-109.998678,57.824127],[-109.990923,57.814531],[-109.977728,57.812003],[-109.975121,57.81028],[-109.977999,57.803071],[-109.980241,57.801221],[-109.995659,57.797204],[-110.003095,57.794244],[-110.005973,57.805541],[-110.006205,59.340463],[-109.991264,59.347468],[-109.990303,59.349292],[-109.991057,59.351062],[-109.998545,59.353222],[-109.998761,59.353852],[-109.99634,59.355358],[-109.992543,59.356016],[-109.982521,59.355438],[-109.978679,59.354109],[-109.975178,59.350906],[-109.971935,59.351857],[-109.965729,59.351582],[-109.950505,59.354222],[-109.948752,59.355125],[-109.948957,59.35653],[-109.952657,59.357739],[-109.965488,59.3568],[-109.970009,59.35759],[-109.96183,59.360214],[-109.959311,59.361911],[-109.956179,59.36544],[-109.953671,59.373246],[-109.953789,59.375742],[-109.947028,59.372662],[-109.941806,59.367912],[-109.937971,59.367482],[-109.939254,59.371931],[-109.933919,59.376821],[-109.935576,59.382992],[-109.934957,59.385643],[-109.935568,59.387293],[-109.946927,59.388274],[-109.954081,59.390764],[-109.958541,59.391107],[-109.960881,59.390703],[-109.961948,59.388476],[-109.957369,59.385628],[-109.957758,59.384911],[-109.961629,59.386302],[-109.966109,59.385942],[-109.968153,59.387016],[-109.968963,59.389171],[-109.968376,59.391182],[-109.967139,59.392129],[-109.966835,59.395226],[-109.959421,59.404032],[-109.952547,59.408102],[-109.937086,59.411009],[-109.925457,59.415032],[-109.923056,59.416394],[-109.921576,59.420137],[-109.913053,59.423922],[-109.902359,59.426637],[-109.893211,59.433089],[-109.873961,59.440422],[-109.86968,59.443929],[-109.867691,59.447664],[-109.868335,59.452129],[-109.86992,59.455281],[-109.878485,59.464793],[-109.881604,59.473286],[-109.887342,59.484954],[-109.902512,59.501603],[-109.915871,59.51786],[-109.916882,59.523094],[-109.915234,59.52733],[-109.920079,59.53286],[-109.922293,59.542994],[-109.921734,59.544364],[-109.920211,59.545193],[-109.912055,59.546528],[-109.900917,59.546496],[-109.89676,59.545753],[-109.878656,59.539557],[-109.8748,59.537389],[-109.86983,59.532757],[-109.867702,59.528532],[-109.868174,59.527423],[-109.86968,59.526467],[-109.886865,59.522035],[-109.887374,59.521181],[-109.886748,59.520369],[-109.88478,59.519865],[-109.875234,59.520286],[-109.857323,59.523202],[-109.840117,59.51647],[-109.825105,59.512892],[-109.806253,59.509634],[-109.741341,59.511598],[-109.730318,59.507634],[-109.718705,59.516303],[-109.741339,59.514467],[-109.737795,59.516282],[-109.73059,59.517805],[-109.691682,59.519205],[-109.59987,59.530397],[-109.465104,59.599195],[-109.287963,59.600419],[-109.277784,59.606157],[-109.256153,59.610981],[-109.245522,59.615209],[-109.24135,59.613423],[-109.239983,59.610049],[-109.233086,59.606721],[-109.216148,59.603668],[-109.206927,59.603371],[-109.186194,59.608109],[-109.180104,59.60775],[-109.173118,59.603479],[-109.151302,59.594956],[-109.148638,59.560764],[-109.149331,59.560595],[-109.145835,59.554147],[-109.141544,59.512834],[-109.130669,59.489597],[-109.123267,59.470236],[-109.11418,59.451834],[-109.09168,59.433427],[-109.067858,59.418546],[-109.058931,59.408921],[-109.053245,59.404696],[-109.048001,59.396936],[-109.041984,59.389843],[-109.028119,59.368181],[-109.019463,59.346575],[-109.014508,59.342089],[-109.005821,59.337337],[-108.999472,59.334428],[-108.992725,59.332547],[-108.990141,59.33068],[-108.989537,59.326544],[-108.986533,59.324745],[-108.964481,59.325868],[-108.94961,59.32972],[-108.911809,59.329624],[-108.90888,59.32865],[-108.871928,59.331774],[-108.86441,59.338079],[-108.854765,59.341996],[-108.853758,59.343878],[-108.850316,59.344548],[-108.847879,59.346491],[-108.844228,59.34691],[-108.840056,59.345896],[-108.839009,59.344532],[-108.851054,59.338327],[-108.851389,59.335818],[-108.852342,59.334693],[-108.857197,59.332973],[-108.858478,59.331986],[-108.858267,59.331352],[-108.854162,59.329955],[-108.828554,59.329495],[-108.823025,59.328398],[-108.805928,59.328386],[-108.796027,59.327582],[-108.793528,59.327943],[-108.784435,59.334106],[-108.770302,59.332323],[-108.750892,59.334953],[-108.745707,59.336677],[-108.744802,59.341508],[-108.741211,59.343475],[-108.73668,59.343383],[-108.726391,59.340924],[-108.728327,59.339817],[-108.725334,59.337435],[-108.724907,59.335663],[-108.724611,59.334045],[-108.726541,59.332604],[-108.726257,59.330084],[-108.721785,59.329905],[-108.721344,59.328601],[-108.717795,59.328039],[-108.724875,59.324279],[-108.72694,59.322354],[-108.714596,59.323074],[-108.707116,59.323747],[-108.66929,59.33281],[-108.655364,59.334949],[-108.642066,59.339271],[-108.625168,59.340907],[-108.609668,59.337951],[-108.591009,59.340195],[-108.472806,59.367735],[-108.395206,59.379054],[-108.359204,59.382562],[-108.239822,59.390736],[-108.196494,59.391805],[-108.112474,59.389717],[-108.064786,59.387241],[-108.025074,59.383532],[-107.988573,59.381798],[-107.937481,59.374718],[-107.930293,59.372977],[-107.92135,59.372407],[-107.886009,59.365591],[-107.804512,59.352671],[-107.771608,59.350841],[-107.740859,59.352709],[-107.716489,59.355942],[-107.556154,59.356258],[-107.519093,59.355466],[-107.515333,59.352334],[-107.511149,59.351498],[-107.505393,59.351535],[-107.501399,59.352482],[-107.483244,59.350066],[-107.462691,59.34032],[-107.440387,59.333645],[-107.421385,59.331466],[-107.388521,59.329538],[-107.35757,59.326555],[-107.323412,59.320074],[-107.272705,59.317928],[-107.25478,59.316198],[-107.244638,59.314871],[-107.219561,59.30921],[-107.166325,59.309383],[-107.144164,59.305706],[-107.143036,59.300252],[-107.117769,59.293674],[-107.11087,59.293691],[-107.092589,59.29585],[-107.090897,59.295535],[-107.090038,59.294007],[-107.087711,59.292677],[-107.08583,59.292609],[-107.071448,59.29418],[-107.042091,59.299308],[-107.01479,59.302668],[-106.9447,59.307147],[-106.910864,59.308173],[-106.874432,59.308702],[-106.85335,59.308216],[-106.77459,59.304587],[-106.732314,59.301217],[-106.71815,59.299567],[-106.715991,59.296049],[-106.733603,59.291762],[-106.734386,59.287698],[-106.722754,59.27984],[-106.714044,59.271959],[-106.644138,59.256432],[-106.494269,59.256399],[-106.49362,59.255621],[-106.48413,59.255592],[-106.484021,59.254371],[-106.47651,59.254327],[-106.476417,59.253106],[-106.465609,59.253237],[-106.465598,59.251891],[-106.402982,59.253889],[-106.269064,59.263724],[-106.232682,59.268395],[-106.182157,59.28122],[-106.159852,59.282892],[-106.126504,59.282918],[-106.100786,59.282561],[-106.072079,59.281023],[-106.001876,59.272475],[-105.960137,59.272247],[-105.904865,59.263337],[-105.898017,59.261106],[-105.8858,59.259764],[-105.86796,59.260775],[-105.849872,59.260291],[-105.828413,59.261058],[-105.820374,59.25947],[-105.808223,59.258727],[-105.804787,59.260046],[-105.800734,59.263484],[-105.779385,59.263002],[-105.767076,59.261912],[-105.756749,59.260061],[-105.749399,59.257455],[-105.737955,59.250736],[-105.733046,59.242473],[-105.72753,59.240961],[-105.70206,59.241159],[-105.660253,59.243754],[-105.62425,59.24437],[-105.591617,59.249737],[-105.591472,59.243542],[-105.573606,59.245744],[-105.573527,59.243327],[-105.545079,59.243393],[-105.546207,59.226318],[-105.570628,59.200741],[-105.559564,59.186247],[-105.559396,59.180394],[-105.554991,59.180334],[-105.554548,59.176233],[-105.552982,59.176218],[-105.552409,59.170708],[-105.555386,59.170651],[-105.555097,59.166439],[-105.547377,59.162901],[-105.540208,59.165168],[-105.539631,59.143176],[-105.538536,59.141418],[-105.537092,59.14131],[-105.526378,59.142731],[-105.488159,59.180551],[-105.431086,59.220414],[-105.371887,59.21682],[-105.334756,59.211218],[-105.175925,59.170874],[-105.143817,59.165766],[-105.102699,59.161686],[-105.062441,59.1603],[-105.032941,59.156152],[-104.984022,59.156289],[-104.788618,59.182917],[-104.722567,59.184277],[-104.68682,59.176344],[-104.674551,59.171704],[-104.608135,59.183736],[-104.569942,59.17561],[-104.471524,59.15684],[-104.472694,59.116771],[-104.504997,59.110444],[-104.506025,59.107664],[-104.505733,59.103568],[-104.519714,59.095791],[-104.532928,59.091942],[-104.534553,59.09065],[-104.533753,59.089697],[-104.517897,59.091265],[-104.514164,59.092865],[-104.505053,59.094427],[-104.503556,59.09579],[-104.498582,59.097593],[-104.493511,59.098257],[-104.491582,59.097775],[-104.492769,59.09571],[-104.491668,59.095174],[-104.485429,59.093356],[-104.479217,59.092767],[-104.478155,59.08976],[-104.481589,59.087416],[-104.484101,59.087388],[-104.485484,59.088724],[-104.487993,59.088962],[-104.496756,59.088613],[-104.499045,59.08617],[-104.501761,59.084793],[-104.511945,59.084453],[-104.512651,59.082586],[-104.516063,59.081534],[-104.521306,59.08163],[-104.536207,59.084281],[-104.543885,59.083308],[-104.545301,59.082325],[-104.545547,59.080149],[-104.544641,59.078012],[-104.536898,59.077129],[-104.517566,59.078235],[-104.505567,59.079722],[-104.500007,59.082517],[-104.496676,59.083003],[-104.475599,59.082848],[-104.452163,59.070357],[-104.441212,59.06766],[-104.429542,59.066164],[-104.361564,59.068015],[-104.353814,59.069663],[-104.348359,59.073504],[-104.347841,59.082031],[-104.336752,59.081935],[-104.333039,59.067284],[-104.327636,59.056536],[-104.321819,59.055061],[-104.259944,59.058404],[-104.226946,59.061862],[-104.21573,59.061642],[-104.203708,59.057995],[-104.202733,59.056653],[-104.19621,59.0538],[-104.166557,59.052717],[-104.152658,59.056963],[-104.141733,59.054362],[-104.133639,59.050815],[-104.133749,59.037006],[-104.103361,59.029284],[-104.081421,59.021212],[-104.057817,59.019331],[-104.051322,59.017718],[-104.047879,59.015525],[-104.046548,59.012986],[-104.049683,59.009395],[-104.0566,59.004038],[-104.054091,58.998042],[-104.045807,58.997563],[-104.021007,58.999546],[-103.996769,58.998156],[-103.991903,58.996913],[-103.980375,58.984176],[-103.961492,58.975835],[-103.940536,58.96538],[-103.921183,58.953045],[-103.917504,58.942024],[-103.912655,58.931735],[-103.909354,58.927103],[-103.900367,58.920641],[-103.885418,58.912196],[-103.873182,58.908822],[-103.875093,58.913065],[-103.857333,58.90999],[-103.846549,58.909657],[-103.823451,58.913489],[-103.818335,58.911982],[-103.815263,58.909404],[-103.817209,58.902886],[-103.844735,58.885142],[-103.830496,58.874936],[-103.825574,58.864435],[-103.825776,58.851723],[-103.832557,58.839308],[-103.841704,58.83137],[-103.847372,58.824589],[-103.853476,58.815161],[-103.855079,58.806607],[-103.85617,58.786853],[-103.861791,58.783201],[-103.861951,58.77829],[-103.873715,58.775081],[-103.885113,58.76844],[-103.885535,58.763188],[-103.893662,58.758696],[-103.894741,58.750713],[-103.896667,58.750516],[-103.898093,58.743091],[-103.898058,58.733587],[-103.899641,58.718158],[-103.891092,58.704959],[-103.885144,58.691692],[-103.883485,58.681132],[-103.888247,58.672492],[-103.895822,58.664539],[-103.895757,58.662723],[-103.908917,58.653765],[-103.883496,58.640524],[-103.881881,58.618142],[-103.872009,58.597559],[-103.864557,58.591264],[-103.847985,58.584122],[-103.830818,58.578476],[-103.755538,58.578868],[-103.755617,58.574128],[-103.741916,58.570071],[-103.733889,58.555128],[-103.721363,58.544433],[-103.744897,58.523393],[-103.74537,58.519571],[-103.750164,58.519661],[-103.748465,58.517605],[-103.753035,58.509666],[-103.744838,58.508247],[-103.743309,58.506569],[-103.740253,58.504727],[-103.735983,58.503496],[-103.731777,58.499593],[-103.727485,58.497744],[-103.724402,58.497619],[-103.712047,58.5003],[-103.708603,58.497651],[-103.705782,58.492869],[-103.700763,58.491107],[-103.698761,58.48757],[-103.687786,58.489787],[-103.68583,58.488674],[-103.686586,58.485449],[-103.685887,58.484729],[-103.670269,58.483496],[-103.667036,58.484984],[-103.662537,58.491116],[-103.661233,58.494382],[-103.660927,58.497659],[-103.662685,58.501459],[-103.662853,58.503925],[-103.661666,58.50989],[-103.6575,58.511672],[-103.648899,58.510852],[-103.642378,58.508622],[-103.637787,58.505171],[-103.636843,58.502919],[-103.637927,58.496038],[-103.636715,58.494504],[-103.635089,58.493822],[-103.630388,58.494201],[-103.629926,58.492948],[-103.632818,58.490067],[-103.634665,58.486274],[-103.634803,58.484584],[-103.633624,58.482232],[-103.63358,58.47495],[-103.632491,58.474257],[-103.629726,58.474348],[-103.629944,58.476213],[-103.626223,58.483839],[-103.626669,58.485029],[-103.625915,58.485758],[-103.622526,58.486073],[-103.618051,58.485595],[-103.60527,58.481818],[-103.592675,58.474503],[-103.592459,58.473074],[-103.593803,58.471235],[-103.600465,58.465699],[-103.608219,58.462314],[-103.638522,58.44551],[-103.672484,58.42929],[-103.672975,58.428285],[-103.670529,58.427071],[-103.669253,58.42486],[-103.669428,58.420227],[-103.671877,58.418351],[-103.677939,58.41675],[-103.680744,58.414402],[-103.682362,58.410498],[-103.681072,58.408642],[-103.676648,58.405864],[-103.655318,58.407127],[-103.638873,58.400967],[-103.638688,58.399665],[-103.639445,58.395683],[-103.641444,58.392504],[-103.652114,58.38466],[-103.658681,58.377599],[-103.660463,58.373568],[-103.659026,58.371385],[-103.648705,58.36871],[-103.646644,58.365414],[-103.659444,58.359848],[-103.676834,58.349078],[-103.679103,58.345762],[-103.679948,58.336221],[-103.65395,58.335239],[-103.62996,58.336316],[-103.620693,58.339288],[-103.61411,58.343313],[-103.596989,58.351039],[-103.588673,58.351668],[-103.58093,58.348799],[-103.578973,58.347027],[-103.576715,58.338535],[-103.574701,58.335245],[-103.566097,58.332833],[-103.564407,58.325153],[-103.561309,58.31793],[-103.561896,58.316819],[-103.594348,58.302611],[-103.60018,58.299593],[-103.599892,58.298984],[-103.602643,58.297224],[-103.623055,58.287385],[-103.627826,58.284495],[-103.628813,58.283015],[-103.627622,58.282301],[-103.630793,58.281996],[-103.63052,58.281173],[-103.631466,58.280328],[-103.636403,58.281951],[-103.640189,58.279709],[-103.644575,58.275906],[-103.639428,58.272586],[-103.646927,58.267123],[-103.646132,58.258392],[-103.644894,58.256796],[-103.646069,58.256266],[-103.645365,58.255327],[-103.660061,58.247028],[-103.661893,58.242674],[-103.659047,58.239245],[-103.659625,58.238277],[-103.6678,58.239004],[-103.681225,58.23627],[-103.679943,58.237472],[-103.670244,58.241364],[-103.671205,58.242182],[-103.676071,58.242233],[-103.679018,58.240552],[-103.685138,58.240805],[-103.687307,58.238213],[-103.685761,58.236154],[-103.685941,58.23523],[-103.696417,58.233126],[-103.697983,58.232191],[-103.69794,58.230907],[-103.691533,58.228702],[-103.691376,58.227927],[-103.695428,58.22167],[-103.697985,58.219497],[-103.709003,58.213786],[-103.716132,58.212789],[-103.72152,58.210109],[-103.721452,58.208861],[-103.720359,58.207959],[-103.715554,58.20696],[-103.7024,58.20653],[-103.703451,58.205471],[-103.707303,58.204797],[-103.708058,58.202606],[-103.706829,58.202356],[-103.705135,58.202517],[-103.703726,58.204107],[-103.702625,58.20395],[-103.703341,58.202454],[-103.705964,58.200746],[-103.724069,58.195599],[-103.754217,58.188884],[-103.757639,58.185841],[-103.759227,58.185939],[-103.758343,58.186877],[-103.75916,58.187217],[-103.764158,58.184567],[-103.76736,58.184915],[-103.773153,58.181535],[-103.787511,58.177084],[-103.801146,58.175534],[-103.81223,58.168751],[-103.822933,58.16493],[-103.828582,58.16545],[-103.843747,58.162505],[-103.923087,58.142418],[-103.934459,58.138091],[-103.934634,58.134591],[-103.943059,58.129869],[-103.965936,58.125266],[-103.966456,58.124662],[-103.96459,58.122099],[-103.971213,58.121271],[-103.975299,58.115009],[-103.975029,58.112914],[-103.971501,58.11094],[-103.964816,58.109175],[-103.952963,58.109149],[-103.946504,58.1105],[-103.928158,58.11882],[-103.919872,58.120941],[-103.912906,58.1216],[-103.896485,58.119084],[-103.89588,58.119607],[-103.895888,58.123501],[-103.892098,58.124103],[-103.89105,58.123234],[-103.891685,58.106108],[-103.893708,58.10434],[-103.898296,58.103192],[-103.899272,58.101703],[-103.899008,58.099954],[-103.895842,58.097352],[-103.889845,58.095789],[-103.89091,58.094429],[-103.894526,58.092835],[-103.899392,58.093961],[-103.897235,58.089253],[-103.894473,58.088599],[-103.893325,58.085808],[-103.891778,58.084383],[-103.8916,58.08033],[-103.88964,58.078991],[-103.88228,58.079072],[-103.856662,58.084835],[-103.850922,58.085631],[-103.849369,58.085082],[-103.846876,58.082386],[-103.844172,58.071665],[-103.845045,58.060158],[-103.831347,58.06329],[-103.825615,58.063713],[-103.822333,58.063065],[-103.823899,58.058374],[-103.820836,58.057454],[-103.821152,58.056031],[-103.824048,58.053847],[-103.823884,58.052705],[-103.81764,58.044269],[-103.817378,58.038307],[-103.823263,58.034366],[-103.831725,58.025874],[-103.837418,58.022035],[-103.862045,58.009165],[-103.897564,57.994356],[-103.898636,57.976077],[-103.902421,57.969336],[-103.907488,57.964507],[-103.92393,57.951842],[-103.932299,57.947905],[-103.935897,57.942673],[-103.940286,57.939874],[-103.952513,57.936695],[-103.966801,57.92929],[-103.967607,57.91992],[-103.973568,57.917616],[-103.975744,57.918845],[-103.984845,57.914883],[-104.002799,57.909148],[-104.022417,57.904252],[-104.025733,57.902138],[-104.032684,57.902643],[-104.048162,57.896533],[-104.050637,57.894018],[-104.005438,57.87067],[-104.003489,57.865858],[-104.005847,57.861315],[-104.010776,57.857983],[-104.014828,57.855707],[-104.029272,57.850732],[-104.041484,57.839891],[-104.053515,57.823975],[-104.078326,57.811799],[-104.094687,57.806017],[-104.108227,57.804568],[-104.123782,57.799527],[-104.15688,57.786364],[-104.178069,57.772912],[-104.188622,57.768465],[-104.202688,57.765939],[-104.220074,57.766365],[-104.222031,57.76684],[-104.223437,57.768691],[-104.226416,57.769779],[-104.234195,57.770004],[-104.23415,57.742041],[-104.265972,57.731431],[-104.282488,57.723802],[-104.31171,57.704917],[-104.336912,57.683509],[-104.365321,57.665029],[-104.376127,57.651011],[-104.391961,57.640154],[-104.402002,57.635116],[-104.410156,57.629306],[-104.41787,57.621204],[-104.430507,57.613332],[-104.438788,57.606541],[-104.459811,57.592254],[-104.486382,57.57549],[-104.53623,57.534566],[-104.553251,57.521787],[-104.564627,57.515757],[-104.581291,57.504879],[-104.604093,57.493255],[-104.62454,57.479586],[-104.648232,57.4705],[-104.670686,57.464533],[-104.687863,57.458045],[-104.71393,57.442824],[-104.735958,57.434118],[-104.757958,57.427983],[-104.790823,57.420944],[-104.809182,57.414698],[-104.811487,57.412703],[-104.811401,57.408755],[-104.790374,57.396286],[-104.788675,57.391941],[-104.788701,57.387273],[-104.787176,57.379884],[-104.787669,57.37822],[-104.800655,57.375327],[-104.805446,57.375214],[-104.810556,57.379791],[-104.815873,57.379635],[-104.824705,57.377298],[-104.828037,57.375149],[-104.84909,57.349862],[-104.869758,57.334826],[-104.902561,57.321179],[-104.94743,57.305533],[-104.966101,57.297221],[-105.001848,57.276415],[-105.029045,57.264646],[-105.04658,57.255966],[-105.091148,57.23202],[-105.090694,57.226249],[-105.126874,57.216634],[-105.167154,57.209975],[-105.195794,57.209386],[-105.201009,57.20654],[-105.213009,57.197738],[-105.226392,57.190989],[-105.239792,57.1876],[-105.263137,57.184688],[-105.27144,57.182261],[-105.287233,57.180419],[-105.311624,57.179005],[-105.420283,57.165346],[-105.445935,57.161098],[-105.49625,57.161801],[-105.51535,57.15905],[-105.546628,57.159613],[-105.549482,57.161092],[-105.550173,57.163466],[-105.549737,57.168718],[-105.552166,57.170204],[-105.558078,57.170535],[-105.570782,57.168647],[-105.585216,57.176269],[-105.594452,57.179113],[-105.605964,57.172743],[-105.619432,57.167981],[-105.619212,57.169446],[-105.616304,57.171438],[-105.613495,57.175854],[-105.608563,57.179329],[-105.610222,57.180139],[-105.611911,57.178543],[-105.613414,57.178345],[-105.613375,57.177062],[-105.616366,57.174804],[-105.619802,57.174064],[-105.622381,57.172101],[-105.626744,57.173429],[-105.626845,57.169036],[-105.634873,57.164364],[-105.641384,57.168508],[-105.656957,57.171773],[-105.667339,57.174808],[-105.671405,57.177045],[-105.673593,57.179346],[-105.674325,57.183532],[-105.672639,57.187076],[-105.65329,57.191427],[-105.651782,57.192802],[-105.653681,57.194991],[-105.683281,57.194784],[-105.685459,57.194208],[-105.688901,57.190921],[-105.693542,57.188818],[-105.704567,57.184764],[-105.708353,57.184355],[-105.715395,57.188594],[-105.725811,57.190673],[-105.727405,57.191591],[-105.725618,57.193122],[-105.71741,57.194164],[-105.701463,57.194502],[-105.695479,57.193873],[-105.690679,57.195834],[-105.679459,57.197034],[-105.679271,57.198332],[-105.681179,57.199248],[-105.68787,57.198755],[-105.688966,57.199762],[-105.688781,57.20253],[-105.694085,57.203713],[-105.718385,57.202545],[-105.750558,57.202649],[-105.752814,57.203064],[-105.755744,57.207282],[-105.758894,57.209662],[-105.770879,57.212149],[-105.786752,57.214611],[-105.814009,57.215586],[-105.851942,57.218711],[-105.860195,57.215637],[-105.904799,57.214163],[-105.9144,57.208643],[-105.925965,57.209677],[-105.936436,57.212506],[-105.941968,57.215703],[-105.977761,57.226573],[-105.998372,57.239212],[-106.000043,57.242017],[-106.004214,57.244494],[-106.009826,57.245761],[-106.04526,57.247114],[-106.067745,57.246473],[-106.108777,57.248743],[-106.130499,57.252599],[-106.14142,57.251193],[-106.146254,57.251505],[-106.161499,57.255168],[-106.213753,57.264189],[-106.232395,57.26476],[-106.274646,57.273474],[-106.28654,57.275106],[-106.322953,57.276427],[-106.355714,57.274338],[-106.377199,57.276231],[-106.39825,57.28347],[-106.426095,57.290367],[-106.461455,57.294596],[-106.486364,57.298939],[-106.511194,57.301219],[-106.538793,57.301399],[-106.567122,57.300554],[-106.603845,57.291455],[-106.62374,57.289158],[-106.705712,57.294383],[-106.73095,57.296986],[-106.734216,57.298272],[-106.71517,57.306093],[-106.74517,57.308866],[-106.76369,57.308513],[-106.772043,57.306826],[-106.791038,57.300899],[-106.80316,57.299109],[-106.814768,57.299325],[-106.861469,57.303732],[-106.895939,57.307852],[-106.927605,57.318516],[-106.961117,57.333094],[-106.990219,57.342859],[-107.010406,57.347843],[-107.034085,57.349122],[-107.051539,57.352303],[-107.070211,57.350942],[-107.084825,57.346232],[-107.110635,57.34289],[-107.15102,57.342658],[-107.159982,57.342986],[-107.192591,57.355204],[-107.209456,57.354402],[-107.231505,57.343371],[-107.362487,57.356513],[-107.453385,57.360541],[-107.515083,57.370656],[-107.547076,57.378254],[-107.5967,57.39218],[-107.612548,57.392495],[-107.642183,57.40044],[-107.68928,57.38603],[-107.716283,57.38984],[-107.752838,57.368369],[-107.776553,57.370952],[-107.767327,57.375729],[-107.776804,57.378651],[-107.779719,57.378182],[-107.782613,57.378958],[-107.742505,57.419285],[-107.747483,57.418531],[-107.741416,57.421276],[-107.732063,57.422962],[-107.727249,57.427004],[-107.784277,57.445994],[-107.786862,57.468615],[-107.800982,57.467155],[-107.811018,57.469787],[-107.823009,57.47491],[-107.835659,57.478255],[-107.839288,57.479971],[-107.845602,57.485562],[-107.849127,57.490018],[-107.85301,57.492926],[-107.857486,57.493253],[-107.86613,57.491988],[-107.903387,57.465827],[-107.918375,57.460241],[-107.939195,57.455804],[-107.942937,57.453842],[-107.94287,57.451151],[-107.954001,57.444535],[-107.962898,57.43765],[-107.986488,57.431703],[-108.01689,57.431454],[-108.078431,57.439715],[-108.143455,57.443413],[-108.162803,57.447909],[-108.189253,57.450004],[-108.211373,57.449899],[-108.231268,57.450988],[-108.256933,57.455721],[-108.276954,57.456628],[-108.277141,57.458112],[-108.258227,57.466122],[-108.256248,57.467601],[-108.257058,57.46917],[-108.25929,57.470114],[-108.270339,57.472222],[-108.285189,57.471029],[-108.315675,57.458578],[-108.331032,57.461239],[-108.341665,57.463212],[-108.363372,57.471809],[-108.383809,57.477887],[-108.385438,57.495475],[-108.408109,57.502849],[-108.438939,57.509614],[-108.462498,57.516654],[-108.480489,57.519137],[-108.504748,57.523838],[-108.549103,57.529601],[-108.598512,57.53391],[-108.621389,57.537186],[-108.643068,57.547523],[-108.647218,57.547551],[-108.650915,57.545809],[-108.656386,57.545202],[-108.665949,57.546879],[-108.673019,57.550217],[-108.681862,57.558392],[-108.692254,57.564578],[-108.715058,57.571814],[-108.753942,57.592183],[-108.779222,57.599334],[-108.813254,57.60402],[-108.837506,57.608995],[-108.867383,57.612914],[-108.919396,57.622952],[-108.9399,57.628024],[-108.962932,57.631823],[-109.002897,57.636272],[-109.016964,57.636699],[-109.059358,57.643928],[-109.07004,57.647694],[-109.076144,57.652838],[-109.049067,57.664762],[-109.042293,57.666025],[-109.049411,57.670293],[-109.054838,57.672447],[-109.069261,57.676282],[-109.071884,57.676235],[-109.079686,57.672797],[-109.094041,57.670641],[-109.105721,57.667057],[-109.13787,57.663841],[-109.134237,57.665997],[-109.130254,57.672519],[-109.132976,57.676651],[-109.143471,57.677875],[-109.164308,57.67309],[-109.176789,57.677864],[-109.18545,57.678783],[-109.190666,57.677163],[-109.195521,57.66777],[-109.199618,57.668259],[-109.201514,57.670711],[-109.196695,57.67397],[-109.190956,57.679643],[-109.190329,57.682519],[-109.191113,57.686419],[-109.189669,57.687687],[-109.192085,57.686719],[-109.193545,57.684713],[-109.201379,57.682123],[-109.201112,57.682798],[-109.204257,57.684178],[-109.21894,57.68209],[-109.232162,57.678449],[-109.245826,57.678665],[-109.257593,57.675984],[-109.276717,57.668938],[-109.27841,57.669057],[-109.288351,57.672375],[-109.307033,57.680192],[-109.313539,57.683259],[-109.321284,57.688235],[-109.342775,57.694555],[-109.344107,57.698167],[-109.354979,57.705788],[-109.376253,57.711145],[-109.390154,57.720181],[-109.399855,57.729743],[-109.410039,57.737384],[-109.422215,57.743812],[-109.428873,57.751443],[-109.431792,57.758863],[-109.435711,57.761772],[-109.441525,57.76271],[-109.451578,57.761164],[-109.472864,57.76183],[-109.504828,57.761076],[-109.534045,57.755463],[-109.544053,57.752594],[-109.547841,57.762981],[-109.552899,57.768566],[-109.553233,57.772123],[-109.552055,57.77514],[-109.547093,57.779959]],[[-109.735806,57.91707],[-109.729872,57.912769],[-109.753626,57.906406],[-109.774514,57.898719],[-109.779985,57.8928],[-109.777037,57.887437],[-109.762588,57.886315],[-109.714004,57.894081],[-109.692734,57.898917],[-109.651942,57.904942],[-109.603227,57.915526],[-109.574836,57.920838],[-109.56184,57.924161],[-109.516746,57.921254],[-109.507633,57.923482],[-109.503983,57.930037],[-109.509567,57.935312],[-109.531249,57.940489],[-109.579443,57.949943],[-109.593011,57.958021],[-109.602587,57.96944],[-109.614923,57.988607],[-109.62261,57.992611],[-109.649958,57.989233],[-109.657308,57.983727],[-109.657763,57.9801],[-109.661304,57.973618],[-109.637112,57.959748],[-109.630261,57.955239],[-109.629156,57.953613],[-109.642216,57.950756],[-109.669517,57.950706],[-109.682375,57.949756],[-109.688457,57.948342],[-109.687961,57.944552],[-109.675211,57.94288],[-109.609414,57.939339],[-109.596993,57.936695],[-109.610495,57.933825],[-109.646014,57.935147],[-109.661124,57.934355],[-109.686612,57.930798],[-109.730168,57.921802],[-109.735806,57.91707]],[[-109.355669,58.486504],[-109.383096,58.514083],[-109.40013,58.523175],[-109.40886,58.525506],[-109.414834,58.526573],[-109.448573,58.526453],[-109.466457,58.529452],[-109.519413,58.525983],[-109.541928,58.519416],[-109.545333,58.520653],[-109.553691,58.517556],[-109.565402,58.516545],[-109.572726,58.514246],[-109.578348,58.51133],[-109.582019,58.508397],[-109.594013,58.503384],[-109.609825,58.504005],[-109.621868,58.499412],[-109.609096,58.491045],[-109.621146,58.486536],[-109.638988,58.476809],[-109.652024,58.471243],[-109.655596,58.473744],[-109.661089,58.467518],[-109.663547,58.462845],[-109.665221,58.45837],[-109.665314,58.451746],[-109.65819,58.451751],[-109.654407,58.447644],[-109.653511,58.444536],[-109.652981,58.441754],[-109.653585,58.440205],[-109.657015,58.436769],[-109.659333,58.42616],[-109.659119,58.422093],[-109.657355,58.417319],[-109.64739,58.408005],[-109.625395,58.394458],[-109.628347,58.392314],[-109.617887,58.384034],[-109.585676,58.372462],[-109.569486,58.368459],[-109.551447,58.365113],[-109.544962,58.36492],[-109.538961,58.365982],[-109.529115,58.369811],[-109.522597,58.370636],[-109.521224,58.370005],[-109.521346,58.364654],[-109.520198,58.363252],[-109.516991,58.362177],[-109.503013,58.360209],[-109.489122,58.361461],[-109.485916,58.356567],[-109.478596,58.357417],[-109.465855,58.353705],[-109.437795,58.347553],[-109.426894,58.358455],[-109.430166,58.371666],[-109.434318,58.378991],[-109.380192,58.390701],[-109.37057,58.393916],[-109.358149,58.405882],[-109.35556,58.409789],[-109.355256,58.436108],[-109.339594,58.439016],[-109.338063,58.448912],[-109.340611,58.448571],[-109.341571,58.456346],[-109.347071,58.460233],[-109.349148,58.462624],[-109.351629,58.469583],[-109.351816,58.477639],[-109.355669,58.486504]],[[-105.025341,57.39006],[-105.037471,57.395381],[-105.042429,57.395364],[-105.047582,57.392654],[-105.050236,57.390044],[-105.050988,57.387872],[-105.054343,57.385474],[-105.054553,57.384527],[-105.051992,57.381072],[-105.044703,57.37942],[-105.030855,57.378432],[-105.024875,57.380487],[-105.021157,57.3801],[-104.98938,57.369035],[-104.990785,57.366748],[-104.998034,57.362773],[-104.992531,57.355965],[-104.988445,57.355279],[-104.984863,57.35717],[-104.979817,57.358162],[-104.973458,57.365519],[-104.973054,57.368896],[-104.976769,57.371977],[-104.974802,57.376334],[-104.984227,57.381846],[-104.986845,57.386718],[-104.989895,57.389251],[-104.99936,57.3907],[-105.019321,57.389021],[-105.025341,57.39006]],[[-103.909346,58.017276],[-103.907774,58.012414],[-103.903966,58.006905],[-103.899605,58.005442],[-103.889927,58.0057],[-103.880841,58.011039],[-103.876653,58.016085],[-103.872077,58.023961],[-103.866484,58.036831],[-103.864109,58.045221],[-103.86399,58.053024],[-103.866799,58.054072],[-103.869749,58.053788],[-103.882278,58.044843],[-103.883318,58.045377],[-103.882141,58.052691],[-103.883284,58.054264],[-103.888214,58.05554],[-103.897185,58.055936],[-103.902063,58.053121],[-103.904484,58.051],[-103.907902,58.0443],[-103.913651,58.030132],[-103.91304,58.023069],[-103.909346,58.017276]],[[-105.201253,58.36895],[-105.193592,58.389845],[-105.20123,58.399786],[-105.220995,58.407317],[-105.244561,58.414839],[-105.268881,58.420363],[-105.293202,58.425087],[-105.312958,58.427827],[-105.338018,58.429356],[-105.363073,58.430084],[-105.377481,58.428848],[-105.39562,58.422025],[-105.432534,58.40001],[-105.436867,58.382478],[-105.434412,58.367756],[-105.423534,58.3451],[-105.409771,58.3336],[-105.37873,58.313962],[-105.371796,58.311725],[-105.334213,58.310308],[-105.311822,58.310935],[-105.299915,58.312484],[-105.265289,58.319785],[-105.244032,58.328572],[-105.221331,58.33945],[-105.210894,58.347452],[-105.201253,58.36895]]],[[[-108.665565,59.366713],[-108.653638,59.365639],[-108.651209,59.363322],[-108.654286,59.360875],[-108.666021,59.358514],[-108.669101,59.35595],[-108.661595,59.356255],[-108.658371,59.35813],[-108.643435,59.363195],[-108.633695,59.36543],[-108.626466,59.363993],[-108.618743,59.360294],[-108.610548,59.361175],[-108.606467,59.360387],[-108.604155,59.358554],[-108.608957,59.355685],[-108.618984,59.357833],[-108.627884,59.361519],[-108.632483,59.362211],[-108.64147,59.360183],[-108.661745,59.351978],[-108.671618,59.351825],[-108.676214,59.353836],[-108.676937,59.355007],[-108.672381,59.361986],[-108.670956,59.363025],[-108.670222,59.365071],[-108.665565,59.366713]]],[[[-108.837573,59.438789],[-108.847961,59.430978],[-108.857428,59.4319],[-108.866291,59.427598],[-108.868707,59.427719],[-108.880316,59.424646],[-108.922422,59.409514],[-108.934665,59.406453],[-108.942974,59.409908],[-108.951083,59.416084],[-108.871101,59.446768],[-108.853057,59.445095],[-108.847939,59.446047],[-108.834411,59.451802],[-108.831268,59.451161],[-108.822692,59.453319],[-108.804085,59.460137],[-108.792737,59.462759],[-108.786956,59.465267],[-108.778766,59.467359],[-108.801072,59.456802],[-108.82128,59.4485],[-108.837573,59.438789]]],[[[-108.634602,59.556034],[-108.605184,59.576141],[-108.5998,59.58011],[-108.601038,59.581369],[-108.586375,59.590887],[-108.582878,59.590231],[-108.57434,59.594015],[-108.523327,59.624046],[-108.509773,59.630941],[-108.480891,59.642703],[-108.462518,59.651777],[-108.45406,59.657085],[-108.417108,59.669961],[-108.393006,59.680148],[-108.385072,59.682668],[-108.368637,59.683347],[-108.358392,59.684995],[-108.340389,59.68521],[-108.335982,59.684264],[-108.332614,59.682431],[-108.334697,59.678853],[-108.341946,59.674082],[-108.388226,59.650687],[-108.412697,59.642016],[-108.430487,59.636678],[-108.434788,59.632351],[-108.448894,59.625262],[-108.458189,59.622456],[-108.474325,59.615376],[-108.476411,59.614153],[-108.481785,59.608515],[-108.47858,59.607456],[-108.47934,59.606104],[-108.507966,59.596898],[-108.549587,59.585022],[-108.540934,59.574143],[-108.536398,59.57052],[-108.520321,59.567171],[-108.524638,59.560694],[-108.523877,59.559227],[-108.520309,59.557785],[-108.501188,59.553626],[-108.489137,59.556155],[-108.474894,59.557927],[-108.472609,59.557686],[-108.469104,59.555293],[-108.469662,59.554279],[-108.474589,59.553342],[-108.483803,59.552847],[-108.488484,59.550365],[-108.484389,59.54973],[-108.480611,59.546007],[-108.485233,59.543621],[-108.484105,59.542812],[-108.480955,59.543765],[-108.479749,59.54189],[-108.482845,59.540493],[-108.485205,59.53762],[-108.493045,59.536926],[-108.491017,59.534286],[-108.482578,59.532011],[-108.4775,59.532056],[-108.479484,59.530482],[-108.479361,59.529276],[-108.483229,59.528269],[-108.498166,59.527201],[-108.511667,59.524031],[-108.513583,59.522418],[-108.512996,59.521315],[-108.50739,59.515355],[-108.503263,59.512813],[-108.508247,59.512652],[-108.510723,59.511909],[-108.515992,59.508361],[-108.535749,59.504053],[-108.538674,59.502464],[-108.546199,59.496116],[-108.538423,59.495667],[-108.539547,59.494839],[-108.542201,59.493767],[-108.559036,59.491296],[-108.58347,59.482994],[-108.603908,59.478987],[-108.607281,59.479285],[-108.617316,59.474297],[-108.622544,59.47684],[-108.632063,59.47467],[-108.6309,59.476731],[-108.633874,59.478033],[-108.630379,59.481487],[-108.633486,59.481707],[-108.636278,59.484158],[-108.639265,59.484132],[-108.642529,59.485329],[-108.656491,59.4841],[-108.663274,59.490618],[-108.663217,59.491768],[-108.665016,59.492918],[-108.668059,59.49299],[-108.663016,59.497778],[-108.663221,59.499156],[-108.675355,59.501907],[-108.682757,59.500799],[-108.690293,59.506226],[-108.699382,59.504306],[-108.710193,59.497908],[-108.715995,59.49206],[-108.729505,59.484042],[-108.743975,59.486451],[-108.758243,59.477391],[-108.759831,59.477501],[-108.758712,59.480556],[-108.751675,59.487489],[-108.748952,59.490809],[-108.748826,59.492044],[-108.740579,59.496534],[-108.739199,59.498268],[-108.739018,59.501266],[-108.737806,59.502608],[-108.730963,59.504595],[-108.72426,59.508713],[-108.718924,59.510234],[-108.712976,59.513142],[-108.706402,59.518246],[-108.704953,59.518799],[-108.699527,59.51838],[-108.692484,59.523076],[-108.692051,59.524398],[-108.692808,59.525327],[-108.689835,59.527074],[-108.667408,59.539997],[-108.643123,59.549207],[-108.634602,59.556034]]],[[[-108.762769,59.732221],[-108.786409,59.732917],[-108.801551,59.737275],[-108.810057,59.738726],[-108.817084,59.741675],[-108.829665,59.74903],[-108.848243,59.752648],[-108.856745,59.753078],[-108.884498,59.75132],[-108.892311,59.749452],[-108.89268,59.740331],[-108.900208,59.737284],[-108.90917,59.73491],[-108.914412,59.734526],[-108.936748,59.736182],[-108.951728,59.735577],[-108.957721,59.73672],[-108.962955,59.740063],[-108.964284,59.74224],[-108.961831,59.745441],[-108.95269,59.748224],[-108.922938,59.751218],[-108.848756,59.763962],[-108.835094,59.764221],[-108.827728,59.762959],[-108.818712,59.758324],[-108.812779,59.756847],[-108.8036,59.756875],[-108.801971,59.756112],[-108.803502,59.754818],[-108.811788,59.753023],[-108.813159,59.752215],[-108.812204,59.751033],[-108.802124,59.751088],[-108.787306,59.753988],[-108.781071,59.754388],[-108.77821,59.753525],[-108.776864,59.752231],[-108.777647,59.750819],[-108.77738,59.749083],[-108.773731,59.748316],[-108.762776,59.748401],[-108.756676,59.74928],[-108.741738,59.757352],[-108.716902,59.773114],[-108.712486,59.77414],[-108.704105,59.773582],[-108.703264,59.771274],[-108.707173,59.766115],[-108.707038,59.765223],[-108.702316,59.762721],[-108.705759,59.757693],[-108.70152,59.75468],[-108.698186,59.74996],[-108.694737,59.748465],[-108.693863,59.747327],[-108.693693,59.74489],[-108.694606,59.74325],[-108.698135,59.73978],[-108.702929,59.737181],[-108.706766,59.736622],[-108.711233,59.737485],[-108.723376,59.73754],[-108.740134,59.735813],[-108.754341,59.732703],[-108.762769,59.732221]]],[[[-108.943414,59.797574],[-108.94814,59.79423],[-108.957414,59.790642],[-108.97338,59.788312],[-108.978205,59.788361],[-108.979782,59.789179],[-108.981455,59.79373],[-108.983226,59.795772],[-108.988315,59.798047],[-109.001104,59.801397],[-109.001981,59.802293],[-108.995289,59.804183],[-108.987733,59.804683],[-108.966679,59.802662],[-108.945967,59.803922],[-108.943629,59.804243],[-108.939246,59.807488],[-108.937703,59.80557],[-108.93875,59.802386],[-108.943414,59.797574]]],[[[-108.896934,59.79006],[-108.896552,59.791355],[-108.895045,59.791741],[-108.878884,59.794191],[-108.877756,59.795437],[-108.87934,59.796203],[-108.883971,59.796435],[-108.884239,59.797806],[-108.881925,59.799223],[-108.845928,59.806454],[-108.843129,59.807922],[-108.840337,59.810798],[-108.837418,59.812068],[-108.825038,59.812794],[-108.822378,59.814188],[-108.821045,59.816005],[-108.821563,59.818676],[-108.821058,59.820606],[-108.819244,59.822387],[-108.814816,59.824119],[-108.785983,59.829529],[-108.775389,59.828612],[-108.774257,59.827669],[-108.775863,59.826513],[-108.789671,59.825836],[-108.809911,59.823411],[-108.81369,59.821432],[-108.812394,59.814493],[-108.804417,59.809884],[-108.804126,59.808375],[-108.807591,59.807305],[-108.812866,59.808521],[-108.822229,59.807712],[-108.830946,59.804618],[-108.834644,59.80268],[-108.835717,59.80034],[-108.836136,59.7948],[-108.839121,59.792147],[-108.847319,59.791423],[-108.86446,59.791859],[-108.891741,59.788917],[-108.896934,59.79006]]],[[[-109.386651,59.85294],[-109.3854,59.848709],[-109.384001,59.846947],[-109.379474,59.84487],[-109.372453,59.843702],[-109.362036,59.844281],[-109.358228,59.845541],[-109.35349,59.848373],[-109.35191,59.847799],[-109.352171,59.844769],[-109.349092,59.842714],[-109.344362,59.841093],[-109.336215,59.840181],[-109.323201,59.840868],[-109.316548,59.843257],[-109.309694,59.849064],[-109.307986,59.853629],[-109.308749,59.862218],[-109.311496,59.867455],[-109.315777,59.870871],[-109.319303,59.87212],[-109.327864,59.872671],[-109.328041,59.873704],[-109.323562,59.875214],[-109.31768,59.875157],[-109.310048,59.872739],[-109.308335,59.873075],[-109.308144,59.876034],[-109.305255,59.877163],[-109.300286,59.877024],[-109.279232,59.867527],[-109.255882,59.858538],[-109.171178,59.827687],[-109.139915,59.819086],[-109.122197,59.815172],[-109.10593,59.812427],[-109.079233,59.809544],[-109.075085,59.810546],[-109.072166,59.810242],[-109.070884,59.809158],[-109.072446,59.800555],[-109.071966,59.799968],[-109.072627,59.799581],[-109.07376,59.793681],[-109.074853,59.792064],[-109.077431,59.791149],[-109.08208,59.792519],[-109.089241,59.792641],[-109.115309,59.789234],[-109.117656,59.787786],[-109.11649,59.784277],[-109.116925,59.782297],[-109.120384,59.779952],[-109.122455,59.776145],[-109.12845,59.77472],[-109.129436,59.775194],[-109.129598,59.777081],[-109.138636,59.776581],[-109.140867,59.772864],[-109.145909,59.770332],[-109.15252,59.76347],[-109.155045,59.762133],[-109.158104,59.762097],[-109.161906,59.763247],[-109.163792,59.76551],[-109.164186,59.767891],[-109.163284,59.772962],[-109.1604,59.776848],[-109.159711,59.779183],[-109.171977,59.78478],[-109.191687,59.788374],[-109.221202,59.797252],[-109.243699,59.805537],[-109.252609,59.807772],[-109.289322,59.811024],[-109.378193,59.837424],[-109.387354,59.841243],[-109.392232,59.843602],[-109.396985,59.847292],[-109.402303,59.854411],[-109.4068,59.858684],[-109.414443,59.863995],[-109.426345,59.870407],[-109.431835,59.876339],[-109.431549,59.880229],[-109.428408,59.882253],[-109.422178,59.882946],[-109.418457,59.882463],[-109.414386,59.879085],[-109.405425,59.875838],[-109.393398,59.869099],[-109.389914,59.86619],[-109.387562,59.862928],[-109.386651,59.85294]]],[[[-106.014147,57.199887],[-106.009247,57.205333],[-106.008753,57.207786],[-106.006563,57.210625],[-105.998699,57.215412],[-105.994952,57.215992],[-105.991425,57.215427],[-105.991065,57.211678],[-105.992531,57.207704],[-105.99997,57.198476],[-106.013896,57.190516],[-106.016873,57.189511],[-106.022034,57.189436],[-106.022944,57.1907],[-106.021374,57.194002],[-106.014147,57.199887]]],[[[-103.651401,58.067493],[-103.641196,58.074409],[-103.634462,58.077147],[-103.627808,58.077778],[-103.626685,58.072498],[-103.6412,58.056848],[-103.646539,58.055851],[-103.651798,58.056961],[-103.652924,58.062241],[-103.651401,58.067493]]],[[[-103.902732,58.124163],[-103.912361,58.129741],[-103.912559,58.132096],[-103.916246,58.137189],[-103.915623,58.137719],[-103.888328,58.148064],[-103.885546,58.148645],[-103.878888,58.148088],[-103.875805,58.147003],[-103.876751,58.141838],[-103.879242,58.140411],[-103.888481,58.138283],[-103.890729,58.135958],[-103.893084,58.130512],[-103.898216,58.124745],[-103.900392,58.123936],[-103.902732,58.124163]]],[[[-103.646827,58.527552],[-103.632535,58.53274],[-103.62199,58.533667],[-103.614377,58.532248],[-103.611761,58.526576],[-103.613426,58.520355],[-103.616126,58.516671],[-103.621067,58.513753],[-103.629638,58.512359],[-103.637542,58.513483],[-103.645038,58.51787],[-103.647845,58.52607],[-103.646827,58.527552]]],[[[-104.42425,59.081919],[-104.40795,59.090879],[-104.401073,59.096026],[-104.396746,59.100673],[-104.389453,59.100548],[-104.389956,59.092531],[-104.373977,59.09266],[-104.374475,59.086664],[-104.388975,59.078626],[-104.400993,59.073744],[-104.411319,59.071864],[-104.419044,59.071538],[-104.424657,59.071563],[-104.429306,59.07339],[-104.428286,59.078444],[-104.42425,59.081919]]]]}},{"type":"Feature","id":2,"properties":{"role":"outline"},"geometry":{"type":"MultiLineString","coordinates":[[[-109.547093,57.779959],[-109.517599,57.796508],[-109.504181,57.806839],[-109.501482,57.810933],[-109.501979,57.814913],[-109.50379,57.816562],[-109.506809,57.817169],[-109.514872,57.817453],[-109.531298,57.816152],[-109.541813,57.813711],[-109.540767,57.817177],[-109.528699,57.829033],[-109.52278,57.833052],[-109.502549,57.84253],[-109.468548,57.860148],[-109.453494,57.873826],[-109.44656,57.87817],[-109.446641,57.884319],[-109.459744,57.887718],[-109.471364,57.888274],[-109.492695,57.886796],[-109.507351,57.884466],[-109.513088,57.884684],[-109.496675,57.89664],[-109.488509,57.905687],[-109.50147,57.912081],[-109.532286,57.912506],[-109.571178,57.914537],[-109.593062,57.912223],[-109.623195,57.90732],[-109.662132,57.898659],[-109.682527,57.896003],[-109.743393,57.885742],[-109.77221,57.881995],[-109.789081,57.884078],[-109.791067,57.885447],[-109.794239,57.890469],[-109.794311,57.896369],[-109.781925,57.905405],[-109.782379,57.908816],[-109.788783,57.91124],[-109.817484,57.912969],[-109.842955,57.916797],[-109.858275,57.915973],[-109.874953,57.910334],[-109.889331,57.900973],[-109.897387,57.894473],[-109.902926,57.885927],[-109.904545,57.873107],[-109.911663,57.856099],[-109.921599,57.850381],[-109.930836,57.850021],[-109.945255,57.850983],[-109.974156,57.842995],[-109.988997,57.836697],[-109.998678,57.824127],[-109.990923,57.814531],[-109.977728,57.812003],[-109.975121,57.81028],[-109.977999,57.803071],[-109.980241,57.801221],[-109.995659,57.797204],[-110.003095,57.794244],[-110.005973,57.805541],[-110.006205,59.340463],[-109.991264,59.347468],[-109.990303,59.349292],[-109.991057,59.351062],[-109.998545,59.353222],[-109.998761,59.353852],[-109.99634,59.355358],[-109.992543,59.356016],[-109.982521,59.355438],[-109.978679,59.354109],[-109.975178,59.350906],[-109.971935,59.351857],[-109.965729,59.351582],[-109.950505,59.354222],[-109.948752,59.355125],[-109.948957,59.35653],[-109.952657,59.357739],[-109.965488,59.3568],[-109.970009,59.35759],[-109.96183,59.360214],[-109.959311,59.361911],[-109.956179,59.36544],[-109.953671,59.373246],[-109.953789,59.375742],[-109.947028,59.372662],[-109.941806,59.367912],[-109.937971,59.367482],[-109.939254,59.371931],[-109.933919,59.376821],[-109.935576,59.382992],[-109.934957,59.385643],[-109.935568,59.387293],[-109.946927,59.388274],[-109.954081,59.390764],[-109.958541,59.391107],[-109.960881,59.390703],[-109.961948,59.388476],[-109.957369,59.385628],[-109.957758,59.384911],[-109.961629,59.386302],[-109.966109,59.385942],[-109.968153,59.387016],[-109.968963,59.389171],[-109.968376,59.391182],[-109.967139,59.392129],[-109.966835,59.395226],[-109.959421,59.404032],[-109.952547,59.408102],[-109.937086,59.411009],[-109.925457,59.415032],[-109.923056,59.416394],[-109.921576,59.420137],[-109.913053,59.423922],[-109.902359,59.426637],[-109.893211,59.433089],[-109.873961,59.440422],[-109.86968,59.443929],[-109.867691,59.447664],[-109.868335,59.452129],[-109.86992,59.455281],[-109.878485,59.464793],[-109.881604,59.473286],[-109.887342,59.484954],[-109.902512,59.501603],[-109.915871,59.51786],[-109.916882,59.523094],[-109.915234,59.52733],[-109.920079,59.53286],[-109.922293,59.542994],[-109.921734,59.544364],[-109.920211,59.545193],[-109.912055,59.546528],[-109.900917,59.546496],[-109.89676,59.545753],[-109.878656,59.539557],[-109.8748,59.537389],[-109.86983,59.532757],[-109.867702,59.528532],[-109.868174,59.527423],[-109.86968,59.526467],[-109.886865,59.522035],[-109.887374,59.521181],[-109.886748,59.520369],[-109.88478,59.519865],[-109.875234,59.520286],[-109.857323,59.523202],[-109.840117,59.51647],[-109.825105,59.512892],[-109.806253,59.509634],[-109.741341,59.511598],[-109.730318,59.507634],[-109.718705,59.516303],[-109.741339,59.514467],[-109.737795,59.516282],[-109.73059,59.517805],[-109.691682,59.519205],[-109.59987,59.530397],[-109.465104,59.599195],[-109.287963,59.600419],[-109.277784,59.606157],[-109.256153,59.610981],[-109.245522,59.615209],[-109.24135,59.613423],[-109.239983,59.610049],[-109.233086,59.606721],[-109.216148,59.603668],[-109.206927,59.603371],[-109.186194,59.608109],[-109.180104,59.60775],[-109.173118,59.603479],[-109.151302,59.594956],[-109.148638,59.560764],[-109.149331,59.560595],[-109.145835,59.554147],[-109.141544,59.512834],[-109.130669,59.489597],[-109.123267,59.470236],[-109.11418,59.451834],[-109.09168,59.433427],[-109.067858,59.418546],[-109.058931,59.408921],[-109.053245,59.404696],[-109.048001,59.396936],[-109.041984,59.389843],[-109.028119,59.368181],[-109.019463,59.346575],[-109.014508,59.342089],[-109.005821,59.337337],[-108.999472,59.334428],[-108.992725,59.332547],[-108.990141,59.33068],[-108.989537,59.326544],[-108.986533,59.324745],[-108.964481,59.325868],[-108.94961,59.32972],[-108.911809,59.329624],[-108.90888,59.32865],[-108.871928,59.331774],[-108.86441,59.338079],[-108.854765,59.341996],[-108.853758,59.343878],[-108.850316,59.344548],[-108.847879,59.346491],[-108.844228,59.34691],[-108.840056,59.345896],[-108.839009,59.344532],[-108.851054,59.338327],[-108.851389,59.335818],[-108.852342,59.334693],[-108.857197,59.332973],[-108.858478,59.331986],[-108.858267,59.331352],[-108.854162,59.329955],[-108.828554,59.329495],[-108.823025,59.328398],[-108.805928,59.328386],[-108.796027,59.327582],[-108.793528,59.327943],[-108.784435,59.334106],[-108.770302,59.332323],[-108.750892,59.334953],[-108.745707,59.336677],[-108.744802,59.341508],[-108.741211,59.343475],[-108.73668,59.343383],[-108.726391,59.340924],[-108.728327,59.339817],[-108.725334,59.337435],[-108.724907,59.335663],[-108.724611,59.334045],[-108.726541,59.332604],[-108.726257,59.330084],[-108.721785,59.329905],[-108.721344,59.328601],[-108.717795,59.328039],[-108.724875,59.324279],[-108.72694,59.322354],[-108.714596,59.323074],[-108.707116,59.323747],[-108.66929,59.33281],[-108.655364,59.334949],[-108.642066,59.339271],[-108.625168,59.340907],[-108.609668,59.337951],[-108.591009,59.340195],[-108.472806,59.367735],[-108.395206,59.379054],[-108.359204,59.382562],[-108.239822,59.390736],[-108.196494,59.391805],[-108.112474,59.389717],[-108.064786,59.387241],[-108.025074,59.383532],[-107.988573,59.381798],[-107.937481,59.374718],[-107.930293,59.372977],[-107.92135,59.372407],[-107.886009,59.365591],[-107.804512,59.352671],[-107.771608,59.350841],[-107.740859,59.352709],[-107.716489,59.355942],[-107.556154,59.356258],[-107.519093,59.355466],[-107.515333,59.352334],[-107.511149,59.351498],[-107.505393,59.351535],[-107.501399,59.352482],[-107.483244,59.350066],[-107.462691,59.34032],[-107.440387,59.333645],[-107.421385,59.331466],[-107.388521,59.329538],[-107.35757,59.326555],[-107.323412,59.320074],[-107.272705,59.317928],[-107.25478,59.316198],[-107.244638,59.314871],[-107.219561,59.30921],[-107.166325,59.309383],[-107.144164,59.305706],[-107.143036,59.300252],[-107.117769,59.293674],[-107.11087,59.293691],[-107.092589,59.29585],[-107.090897,59.295535],[-107.090038,59.294007],[-107.087711,59.292677],[-107.08583,59.292609],[-107.071448,59.29418],[-107.042091,59.299308],[-107.01479,59.302668],[-106.9447,59.307147],[-106.910864,59.308173],[-106.874432,59.308702],[-106.85335,59.308216],[-106.77459,59.304587],[-106.732314,59.301217],[-106.71815,59.299567],[-106.715991,59.296049],[-106.733603,59.291762],[-106.734386,59.287698],[-106.722754,59.27984],[-106.714044,59.271959],[-106.644138,59.256432],[-106.494269,59.256399],[-106.49362,59.255621],[-106.48413,59.255592],[-106.484021,59.254371],[-106.47651,59.254327],[-106.476417,59.253106],[-106.465609,59.253237],[-106.465598,59.251891],[-106.402982,59.253889],[-106.269064,59.263724],[-106.232682,59.268395],[-106.182157,59.28122],[-106.159852,59.282892],[-106.126504,59.282918],[-106.100786,59.282561],[-106.072079,59.281023],[-106.001876,59.272475],[-105.960137,59.272247],[-105.904865,59.263337],[-105.898017,59.261106],[-105.8858,59.259764],[-105.86796,59.260775],[-105.849872,59.260291],[-105.828413,59.261058],[-105.820374,59.25947],[-105.808223,59.258727],[-105.804787,59.260046],[-105.800734,59.263484],[-105.779385,59.263002],[-105.767076,59.261912],[-105.756749,59.260061],[-105.749399,59.257455],[-105.737955,59.250736],[-105.733046,59.242473],[-105.72753,59.240961],[-105.70206,59.241159],[-105.660253,59.243754],[-105.62425,59.24437],[-105.591617,59.249737],[-105.591472,59.243542],[-105.573606,59.245744],[-105.573527,59.243327],[-105.545079,59.243393],[-105.546207,59.226318],[-105.570628,59.200741],[-105.559564,59.186247],[-105.559396,59.180394],[-105.554991,59.180334],[-105.554548,59.176233],[-105.552982,59.176218],[-105.552409,59.170708],[-105.555386,59.170651],[-105.555097,59.166439],[-105.547377,59.162901],[-105.540208,59.165168],[-105.539631,59.143176],[-105.538536,59.141418],[-105.537092,59.14131],[-105.526378,59.142731],[-105.488159,59.180551],[-105.431086,59.220414],[-105.371887,59.21682],[-105.334756,59.211218],[-105.175925,59.170874],[-105.143817,59.165766],[-105.102699,59.161686],[-105.062441,59.1603],[-105.032941,59.156152],[-104.984022,59.156289],[-104.788618,59.182917],[-104.722567,59.184277],[-104.68682,59.176344],[-104.674551,59.171704],[-104.608135,59.183736],[-104.569942,59.17561],[-104.471524,59.15684],[-104.472694,59.116771],[-104.504997,59.110444],[-104.506025,59.107664],[-104.505733,59.103568],[-104.519714,59.095791],[-104.532928,59.091942],[-104.534553,59.09065],[-104.533753,59.089697],[-104.517897,59.091265],[-104.514164,59.092865],[-104.505053,59.094427],[-104.503556,59.09579],[-104.498582,59.097593],[-104.493511,59.098257],[-104.491582,59.097775],[-104.492769,59.09571],[-104.491668,59.095174],[-104.485429,59.093356],[-104.479217,59.092767],[-104.478155,59.08976],[-104.481589,59.087416],[-104.484101,59.087388],[-104.485484,59.088724],[-104.487993,59.088962],[-104.496756,59.088613],[-104.499045,59.08617],[-104.501761,59.084793],[-104.511945,59.084453],[-104.512651,59.082586],[-104.516063,59.081534],[-104.521306,59.08163],[-104.536207,59.084281],[-104.543885,59.083308],[-104.545301,59.082325],[-104.545547,59.080149],[-104.544641,59.078012],[-104.536898,59.077129],[-104.517566,59.078235],[-104.505567,59.079722],[-104.500007,59.082517],[-104.496676,59.083003],[-104.475599,59.082848],[-104.452163,59.070357],[-104.441212,59.06766],[-104.429542,59.066164],[-104.361564,59.068015],[-104.353814,59.069663],[-104.348359,59.073504],[-104.347841,59.082031],[-104.336752,59.081935],[-104.333039,59.067284],[-104.327636,59.056536],[-104.321819,59.055061],[-104.259944,59.058404],[-104.226946,59.061862],[-104.21573,59.061642],[-104.203708,59.057995],[-104.202733,59.056653],[-104.19621,59.0538],[-104.166557,59.052717],[-104.152658,59.056963],[-104.141733,59.054362],[-104.133639,59.050815],[-104.133749,59.037006],[-104.103361,59.029284],[-104.081421,59.021212],[-104.057817,59.019331],[-104.051322,59.017718],[-104.047879,59.015525],[-104.046548,59.012986],[-104.049683,59.009395],[-104.0566,59.004038],[-104.054091,58.998042],[-104.045807,58.997563],[-104.021007,58.999546],[-103.996769,58.998156],[-103.991903,58.996913],[-103.980375,58.984176],[-103.961492,58.975835],[-103.940536,58.96538],[-103.921183,58.953045],[-103.917504,58.942024],[-103.912655,58.931735],[-103.909354,58.927103],[-103.900367,58.920641],[-103.885418,58.912196],[-103.873182,58.908822],[-103.875093,58.913065],[-103.857333,58.90999],[-103.846549,58.909657],[-103.823451,58.913489],[-103.818335,58.911982],[-103.815263,58.909404],[-103.817209,58.902886],[-103.844735,58.885142],[-103.830496,58.874936],[-103.825574,58.864435],[-103.825776,58.851723],[-103.832557,58.839308],[-103.841704,58.83137],[-103.847372,58.824589],[-103.853476,58.815161],[-103.855079,58.806607],[-103.85617,58.786853],[-103.861791,58.783201],[-103.861951,58.77829],[-103.873715,58.775081],[-103.885113,58.76844],[-103.885535,58.763188],[-103.893662,58.758696],[-103.894741,58.750713],[-103.896667,58.750516],[-103.898093,58.743091],[-103.898058,58.733587],[-103.899641,58.718158],[-103.891092,58.704959],[-103.885144,58.691692],[-103.883485,58.681132],[-103.888247,58.672492],[-103.895822,58.664539],[-103.895757,58.662723],[-103.908917,58.653765],[-103.883496,58.640524],[-103.881881,58.618142],[-103.872009,58.597559],[-103.864557,58.591264],[-103.847985,58.584122],[-103.830818,58.578476],[-103.755538,58.578868],[-103.755617,58.574128],[-103.741916,58.570071],[-103.733889,58.555128],[-103.721363,58.544433],[-103.744897,58.523393],[-103.74537,58.519571],[-103.750164,58.519661],[-103.748465,58.517605],[-103.753035,58.509666],[-103.744838,58.508247],[-103.743309,58.506569],[-103.740253,58.504727],[-103.735983,58.503496],[-103.731777,58.499593],[-103.727485,58.497744],[-103.724402,58.497619],[-103.712047,58.5003],[-103.708603,58.497651],[-103.705782,58.492869],[-103.700763,58.491107],[-103.698761,58.48757],[-103.687786,58.489787],[-103.68583,58.488674],[-103.686586,58.485449],[-103.685887,58.484729],[-103.670269,58.483496],[-103.667036,58.484984],[-103.662537,58.491116],[-103.661233,58.494382],[-103.660927,58.497659],[-103.662685,58.501459],[-103.662853,58.503925],[-103.661666,58.50989],[-103.6575,58.511672],[-103.648899,58.510852],[-103.642378,58.508622],[-103.637787,58.505171],[-103.636843,58.502919],[-103.637927,58.496038],[-103.636715,58.494504],[-103.635089,58.493822],[-103.630388,58.494201],[-103.629926,58.492948],[-103.632818,58.490067],[-103.634665,58.486274],[-103.634803,58.484584],[-103.633624,58.482232],[-103.63358,58.47495],[-103.632491,58.474257],[-103.629726,58.474348],[-103.629944,58.476213],[-103.626223,58.483839],[-103.626669,58.485029],[-103.625915,58.485758],[-103.622526,58.486073],[-103.618051,58.485595],[-103.60527,58.481818],[-103.592675,58.474503],[-103.592459,58.473074],[-103.593803,58.471235],[-103.600465,58.465699],[-103.608219,58.462314],[-103.638522,58.44551],[-103.672484,58.42929],[-103.672975,58.428285],[-103.670529,58.427071],[-103.669253,58.42486],[-103.669428,58.420227],[-103.671877,58.418351],[-103.677939,58.41675],[-103.680744,58.414402],[-103.682362,58.410498],[-103.681072,58.408642],[-103.676648,58.405864],[-103.655318,58.407127],[-103.638873,58.400967],[-103.638688,58.399665],[-103.639445,58.395683],[-103.641444,58.392504],[-103.652114,58.38466],[-103.658681,58.377599],[-103.660463,58.373568],[-103.659026,58.371385],[-103.648705,58.36871],[-103.646644,58.365414],[-103.659444,58.359848],[-103.676834,58.349078],[-103.679103,58.345762],[-103.679948,58.336221],[-103.65395,58.335239],[-103.62996,58.336316],[-103.620693,58.339288],[-103.61411,58.343313],[-103.596989,58.351039],[-103.588673,58.351668],[-103.58093,58.348799],[-103.578973,58.347027],[-103.576715,58.338535],[-103.574701,58.335245],[-103.566097,58.332833],[-103.564407,58.325153],[-103.561309,58.31793],[-103.561896,58.316819],[-103.594348,58.302611],[-103.60018,58.299593],[-103.599892,58.298984],[-103.602643,58.297224],[-103.623055,58.287385],[-103.627826,58.284495],[-103.628813,58.283015],[-103.627622,58.282301],[-103.630793,58.281996],[-103.63052,58.281173],[-103.631466,58.280328],[-103.636403,58.281951],[-103.640189,58.279709],[-103.644575,58.275906],[-103.639428,58.272586],[-103.646927,58.267123],[-103.646132,58.258392],[-103.644894,58.256796],[-103.646069,58.256266],[-103.645365,58.255327],[-103.660061,58.247028],[-103.661893,58.242674],[-103.659047,58.239245],[-103.659625,58.238277],[-103.6678,58.239004],[-103.681225,58.23627],[-103.679943,58.237472],[-103.670244,58.241364],[-103.671205,58.242182],[-103.676071,58.242233],[-103.679018,58.240552],[-103.685138,58.240805],[-103.687307,58.238213],[-103.685761,58.236154],[-103.685941,58.23523],[-103.696417,58.233126],[-103.697983,58.232191],[-103.69794,58.230907],[-103.691533,58.228702],[-103.691376,58.227927],[-103.695428,58.22167],[-103.697985,58.219497],[-103.709003,58.213786],[-103.716132,58.212789],[-103.72152,58.210109],[-103.721452,58.208861],[-103.720359,58.207959],[-103.715554,58.20696],[-103.7024,58.20653],[-103.703451,58.205471],[-103.707303,58.204797],[-103.708058,58.202606],[-103.706829,58.202356],[-103.705135,58.202517],[-103.703726,58.204107],[-103.702625,58.20395],[-103.703341,58.202454],[-103.705964,58.200746],[-103.724069,58.195599],[-103.754217,58.188884],[-103.757639,58.185841],[-103.759227,58.185939],[-103.758343,58.186877],[-103.75916,58.187217],[-103.764158,58.184567],[-103.76736,58.184915],[-103.773153,58.181535],[-103.787511,58.177084],[-103.801146,58.175534],[-103.81223,58.168751],[-103.822933,58.16493],[-103.828582,58.16545],[-103.843747,58.162505],[-103.923087,58.142418],[-103.934459,58.138091],[-103.934634,58.134591],[-103.943059,58.129869],[-103.965936,58.125266],[-103.966456,58.124662],[-103.96459,58.122099],[-103.971213,58.121271],[-103.975299,58.115009],[-103.975029,58.112914],[-103.971501,58.11094],[-103.964816,58.109175],[-103.952963,58.109149],[-103.946504,58.1105],[-103.928158,58.11882],[-103.919872,58.120941],[-103.912906,58.1216],[-103.896485,58.119084],[-103.89588,58.119607],[-103.895888,58.123501],[-103.892098,58.124103],[-103.89105,58.123234],[-103.891685,58.106108],[-103.893708,58.10434],[-103.898296,58.103192],[-103.899272,58.101703],[-103.899008,58.099954],[-103.895842,58.097352],[-103.889845,58.095789],[-103.89091,58.094429],[-103.894526,58.092835],[-103.899392,58.093961],[-103.897235,58.089253],[-103.894473,58.088599],[-103.893325,58.085808],[-103.891778,58.084383],[-103.8916,58.08033],[-103.88964,58.078991],[-103.88228,58.079072],[-103.856662,58.084835],[-103.850922,58.085631],[-103.849369,58.085082],[-103.846876,58.082386],[-103.844172,58.071665],[-103.845045,58.060158],[-103.831347,58.06329],[-103.825615,58.063713],[-103.822333,58.063065],[-103.823899,58.058374],[-103.820836,58.057454],[-103.821152,58.056031],[-103.824048,58.053847],[-103.823884,58.052705],[-103.81764,58.044269],[-103.817378,58.038307],[-103.823263,58.034366],[-103.831725,58.025874],[-103.837418,58.022035],[-103.862045,58.009165],[-103.897564,57.994356],[-103.898636,57.976077],[-103.902421,57.969336],[-103.907488,57.964507],[-103.92393,57.951842],[-103.932299,57.947905],[-103.935897,57.942673],[-103.940286,57.939874],[-103.952513,57.936695],[-103.966801,57.92929],[-103.967607,57.91992],[-103.973568,57.917616],[-103.975744,57.918845],[-103.984845,57.914883],[-104.002799,57.909148],[-104.022417,57.904252],[-104.025733,57.902138],[-104.032684,57.902643],[-104.048162,57.896533],[-104.050637,57.894018],[-104.005438,57.87067],[-104.003489,57.865858],[-104.005847,57.861315],[-104.010776,57.857983],[-104.014828,57.855707],[-104.029272,57.850732],[-104.041484,57.839891],[-104.053515,57.823975],[-104.078326,57.811799],[-104.094687,57.806017],[-104.108227,57.804568],[-104.123782,57.799527],[-104.15688,57.786364],[-104.178069,57.772912],[-104.188622,57.768465],[-104.202688,57.765939],[-104.220074,57.766365],[-104.222031,57.76684],[-104.223437,57.768691],[-104.226416,57.769779],[-104.234195,57.770004],[-104.23415,57.742041],[-104.265972,57.731431],[-104.282488,57.723802],[-104.31171,57.704917],[-104.336912,57.683509],[-104.365321,57.665029],[-104.376127,57.651011],[-104.391961,57.640154],[-104.402002,57.635116],[-104.410156,57.629306],[-104.41787,57.621204],[-104.430507,57.613332],[-104.438788,57.606541],[-104.459811,57.592254],[-104.486382,57.57549],[-104.53623,57.534566],[-104.553251,57.521787],[-104.564627,57.515757],[-104.581291,57.504879],[-104.604093,57.493255],[-104.62454,57.479586],[-104.648232,57.4705],[-104.670686,57.464533],[-104.687863,57.458045],[-104.71393,57.442824],[-104.735958,57.434118],[-104.757958,57.427983],[-104.790823,57.420944],[-104.809182,57.414698],[-104.811487,57.412703],[-104.811401,57.408755],[-104.790374,57.396286],[-104.788675,57.391941],[-104.788701,57.387273],[-104.787176,57.379884],[-104.787669,57.37822],[-104.800655,57.375327],[-104.805446,57.375214],[-104.810556,57.379791],[-104.815873,57.379635],[-104.824705,57.377298],[-104.828037,57.375149],[-104.84909,57.349862],[-104.869758,57.334826],[-104.902561,57.321179],[-104.94743,57.305533],[-104.966101,57.297221],[-105.001848,57.276415],[-105.029045,57.264646],[-105.04658,57.255966],[-105.091148,57.23202],[-105.090694,57.226249],[-105.126874,57.216634],[-105.167154,57.209975],[-105.195794,57.209386],[-105.201009,57.20654],[-105.213009,57.197738],[-105.226392,57.190989],[-105.239792,57.1876],[-105.263137,57.184688],[-105.27144,57.182261],[-105.287233,57.180419],[-105.311624,57.179005],[-105.420283,57.165346],[-105.445935,57.161098],[-105.49625,57.161801],[-105.51535,57.15905],[-105.546628,57.159613],[-105.549482,57.161092],[-105.550173,57.163466],[-105.549737,57.168718],[-105.552166,57.170204],[-105.558078,57.170535],[-105.570782,57.168647],[-105.585216,57.176269],[-105.594452,57.179113],[-105.605964,57.172743],[-105.619432,57.167981],[-105.619212,57.169446],[-105.616304,57.171438],[-105.613495,57.175854],[-105.608563,57.179329],[-105.610222,57.180139],[-105.611911,57.178543],[-105.613414,57.178345],[-105.613375,57.177062],[-105.616366,57.174804],[-105.619802,57.174064],[-105.622381,57.172101],[-105.626744,57.173429],[-105.626845,57.169036],[-105.634873,57.164364],[-105.641384,57.168508],[-105.656957,57.171773],[-105.667339,57.174808],[-105.671405,57.177045],[-105.673593,57.179346],[-105.674325,57.183532],[-105.672639,57.187076],[-105.65329,57.191427],[-105.651782,57.192802],[-105.653681,57.194991],[-105.683281,57.194784],[-105.685459,57.194208],[-105.688901,57.190921],[-105.693542,57.188818],[-105.704567,57.184764],[-105.708353,57.184355],[-105.715395,57.188594],[-105.725811,57.190673],[-105.727405,57.191591],[-105.725618,57.193122],[-105.71741,57.194164],[-105.701463,57.194502],[-105.695479,57.193873],[-105.690679,57.195834],[-105.679459,57.197034],[-105.679271,57.198332],[-105.681179,57.199248],[-105.68787,57.198755],[-105.688966,57.199762],[-105.688781,57.20253],[-105.694085,57.203713],[-105.718385,57.202545],[-105.750558,57.202649],[-105.752814,57.203064],[-105.755744,57.207282],[-105.758894,57.209662],[-105.770879,57.212149],[-105.786752,57.214611],[-105.814009,57.215586],[-105.851942,57.218711],[-105.860195,57.215637],[-105.904799,57.214163],[-105.9144,57.208643],[-105.925965,57.209677],[-105.936436,57.212506],[-105.941968,57.215703],[-105.977761,57.226573],[-105.998372,57.239212],[-106.000043,57.242017],[-106.004214,57.244494],[-106.009826,57.245761],[-106.04526,57.247114],[-106.067745,57.246473],[-106.108777,57.248743],[-106.130499,57.252599],[-106.14142,57.251193],[-106.146254,57.251505],[-106.161499,57.255168],[-106.213753,57.264189],[-106.232395,57.26476],[-106.274646,57.273474],[-106.28654,57.275106],[-106.322953,57.276427],[-106.355714,57.274338],[-106.377199,57.276231],[-106.39825,57.28347],[-106.426095,57.290367],[-106.461455,57.294596],[-106.486364,57.298939],[-106.511194,57.301219],[-106.538793,57.301399],[-106.567122,57.300554],[-106.603845,57.291455],[-106.62374,57.289158],[-106.705712,57.294383],[-106.73095,57.296986],[-106.734216,57.298272],[-106.71517,57.306093],[-106.74517,57.308866],[-106.76369,57.308513],[-106.772043,57.306826],[-106.791038,57.300899],[-106.80316,57.299109],[-106.814768,57.299325],[-106.861469,57.303732],[-106.895939,57.307852],[-106.927605,57.318516],[-106.961117,57.333094],[-106.990219,57.342859],[-107.010406,57.347843],[-107.034085,57.349122],[-107.051539,57.352303],[-107.070211,57.350942],[-107.084825,57.346232],[-107.110635,57.34289],[-107.15102,57.342658],[-107.159982,57.342986],[-107.192591,57.355204],[-107.209456,57.354402],[-107.231505,57.343371],[-107.362487,57.356513],[-107.453385,57.360541],[-107.515083,57.370656],[-107.547076,57.378254],[-107.5967,57.39218],[-107.612548,57.392495],[-107.642183,57.40044],[-107.68928,57.38603],[-107.716283,57.38984],[-107.752838,57.368369],[-107.776553,57.370952],[-107.767327,57.375729],[-107.776804,57.378651],[-107.779719,57.378182],[-107.782613,57.378958],[-107.742505,57.419285],[-107.747483,57.418531],[-107.741416,57.421276],[-107.732063,57.422962],[-107.727249,57.427004],[-107.784277,57.445994],[-107.786862,57.468615],[-107.800982,57.467155],[-107.811018,57.469787],[-107.823009,57.47491],[-107.835659,57.478255],[-107.839288,57.479971],[-107.845602,57.485562],[-107.849127,57.490018],[-107.85301,57.492926],[-107.857486,57.493253],[-107.86613,57.491988],[-107.903387,57.465827],[-107.918375,57.460241],[-107.939195,57.455804],[-107.942937,57.453842],[-107.94287,57.451151],[-107.954001,57.444535],[-107.962898,57.43765],[-107.986488,57.431703],[-108.01689,57.431454],[-108.078431,57.439715],[-108.143455,57.443413],[-108.162803,57.447909],[-108.189253,57.450004],[-108.211373,57.449899],[-108.231268,57.450988],[-108.256933,57.455721],[-108.276954,57.456628],[-108.277141,57.458112],[-108.258227,57.466122],[-108.256248,57.467601],[-108.257058,57.46917],[-108.25929,57.470114],[-108.270339,57.472222],[-108.285189,57.471029],[-108.315675,57.458578],[-108.331032,57.461239],[-108.341665,57.463212],[-108.363372,57.471809],[-108.383809,57.477887],[-108.385438,57.495475],[-108.408109,57.502849],[-108.438939,57.509614],[-108.462498,57.516654],[-108.480489,57.519137],[-108.504748,57.523838],[-108.549103,57.529601],[-108.598512,57.53391],[-108.621389,57.537186],[-108.643068,57.547523],[-108.647218,57.547551],[-108.650915,57.545809],[-108.656386,57.545202],[-108.665949,57.546879],[-108.673019,57.550217],[-108.681862,57.558392],[-108.692254,57.564578],[-108.715058,57.571814],[-108.753942,57.592183],[-108.779222,57.599334],[-108.813254,57.60402],[-108.837506,57.608995],[-108.867383,57.612914],[-108.919396,57.622952],[-108.9399,57.628024],[-108.962932,57.631823],[-109.002897,57.636272],[-109.016964,57.636699],[-109.059358,57.643928],[-109.07004,57.647694],[-109.076144,57.652838],[-109.049067,57.664762],[-109.042293,57.666025],[-109.049411,57.670293],[-109.054838,57.672447],[-109.069261,57.676282],[-109.071884,57.676235],[-109.079686,57.672797],[-109.094041,57.670641],[-109.105721,57.667057],[-109.13787,57.663841],[-109.134237,57.665997],[-109.130254,57.672519],[-109.132976,57.676651],[-109.143471,57.677875],[-109.164308,57.67309],[-109.176789,57.677864],[-109.18545,57.678783],[-109.190666,57.677163],[-109.195521,57.66777],[-109.199618,57.668259],[-109.201514,57.670711],[-109.196695,57.67397],[-109.190956,57.679643],[-109.190329,57.682519],[-109.191113,57.686419],[-109.189669,57.687687],[-109.192085,57.686719],[-109.193545,57.684713],[-109.201379,57.682123],[-109.201112,57.682798],[-109.204257,57.684178],[-109.21894,57.68209],[-109.232162,57.678449],[-109.245826,57.678665],[-109.257593,57.675984],[-109.276717,57.668938],[-109.27841,57.669057],[-109.288351,57.672375],[-109.307033,57.680192],[-109.313539,57.683259],[-109.321284,57.688235],[-109.342775,57.694555],[-109.344107,57.698167],[-109.354979,57.705788],[-109.376253,57.711145],[-109.390154,57.720181],[-109.399855,57.729743],[-109.410039,57.737384],[-109.422215,57.743812],[-109.428873,57.751443],[-109.431792,57.758863],[-109.435711,57.761772],[-109.441525,57.76271],[-109.451578,57.761164],[-109.472864,57.76183],[-109.504828,57.761076],[-109.534045,57.755463],[-109.544053,57.752594],[-109.547841,57.762981],[-109.552899,57.768566],[-109.553233,57.772123],[-109.552055,57.77514],[-109.547093,57.779959]],[[-108.634602,59.556034],[-108.605184,59.576141],[-108.5998,59.58011],[-108.601038,59.581369],[-108.586375,59.590887],[-108.582878,59.590231],[-108.57434,59.594015],[-108.523327,59.624046],[-108.509773,59.630941],[-108.480891,59.642703],[-108.462518,59.651777],[-108.45406,59.657085],[-108.417108,59.669961],[-108.393006,59.680148],[-108.385072,59.682668],[-108.368637,59.683347],[-108.358392,59.684995],[-108.340389,59.68521],[-108.335982,59.684264],[-108.332614,59.682431],[-108.334697,59.678853],[-108.341946,59.674082],[-108.388226,59.650687],[-108.412697,59.642016],[-108.430487,59.636678],[-108.434788,59.632351],[-108.448894,59.625262],[-108.458189,59.622456],[-108.474325,59.615376],[-108.476411,59.614153],[-108.481785,59.608515],[-108.47858,59.607456],[-108.47934,59.606104],[-108.507966,59.596898],[-108.549587,59.585022],[-108.540934,59.574143],[-108.536398,59.57052],[-108.520321,59.567171],[-108.524638,59.560694],[-108.523877,59.559227],[-108.520309,59.557785],[-108.501188,59.553626],[-108.489137,59.556155],[-108.474894,59.557927],[-108.472609,59.557686],[-108.469104,59.555293],[-108.469662,59.554279],[-108.474589,59.553342],[-108.483803,59.552847],[-108.488484,59.550365],[-108.484389,59.54973],[-108.480611,59.546007],[-108.485233,59.543621],[-108.484105,59.542812],[-108.480955,59.543765],[-108.479749,59.54189],[-108.482845,59.540493],[-108.485205,59.53762],[-108.493045,59.536926],[-108.491017,59.534286],[-108.482578,59.532011],[-108.4775,59.532056],[-108.479484,59.530482],[-108.479361,59.529276],[-108.483229,59.528269],[-108.498166,59.527201],[-108.511667,59.524031],[-108.513583,59.522418],[-108.512996,59.521315],[-108.50739,59.515355],[-108.503263,59.512813],[-108.508247,59.512652],[-108.510723,59.511909],[-108.515992,59.508361],[-108.535749,59.504053],[-108.538674,59.502464],[-108.546199,59.496116],[-108.538423,59.495667],[-108.539547,59.494839],[-108.542201,59.493767],[-108.559036,59.491296],[-108.58347,59.482994],[-108.603908,59.478987],[-108.607281,59.479285],[-108.617316,59.474297],[-108.622544,59.47684],[-108.632063,59.47467],[-108.6309,59.476731],[-108.633874,59.478033],[-108.630379,59.481487],[-108.633486,59.481707],[-108.636278,59.484158],[-108.639265,59.484132],[-108.642529,59.485329],[-108.656491,59.4841],[-108.663274,59.490618],[-108.663217,59.491768],[-108.665016,59.492918],[-108.668059,59.49299],[-108.663016,59.497778],[-108.663221,59.499156],[-108.675355,59.501907],[-108.682757,59.500799],[-108.690293,59.506226],[-108.699382,59.504306],[-108.710193,59.497908],[-108.715995,59.49206],[-108.729505,59.484042],[-108.743975,59.486451],[-108.758243,59.477391],[-108.759831,59.477501],[-108.758712,59.480556],[-108.751675,59.487489],[-108.748952,59.490809],[-108.748826,59.492044],[-108.740579,59.496534],[-108.739199,59.498268],[-108.739018,59.501266],[-108.737806,59.502608],[-108.730963,59.504595],[-108.72426,59.508713],[-108.718924,59.510234],[-108.712976,59.513142],[-108.706402,59.518246],[-108.704953,59.518799],[-108.699527,59.51838],[-108.692484,59.523076],[-108.692051,59.524398],[-108.692808,59.525327],[-108.689835,59.527074],[-108.667408,59.539997],[-108.643123,59.549207],[-108.634602,59.556034]],[[-109.386651,59.85294],[-109.3854,59.848709],[-109.384001,59.846947],[-109.379474,59.84487],[-109.372453,59.843702],[-109.362036,59.844281],[-109.358228,59.845541],[-109.35349,59.848373],[-109.35191,59.847799],[-109.352171,59.844769],[-109.349092,59.842714],[-109.344362,59.841093],[-109.336215,59.840181],[-109.323201,59.840868],[-109.316548,59.843257],[-109.309694,59.849064],[-109.307986,59.853629],[-109.308749,59.862218],[-109.311496,59.867455],[-109.315777,59.870871],[-109.319303,59.87212],[-109.327864,59.872671],[-109.328041,59.873704],[-109.323562,59.875214],[-109.31768,59.875157],[-109.310048,59.872739],[-109.308335,59.873075],[-109.308144,59.876034],[-109.305255,59.877163],[-109.300286,59.877024],[-109.279232,59.867527],[-109.255882,59.858538],[-109.171178,59.827687],[-109.139915,59.819086],[-109.122197,59.815172],[-109.10593,59.812427],[-109.079233,59.809544],[-109.075085,59.810546],[-109.072166,59.810242],[-109.070884,59.809158],[-109.072446,59.800555],[-109.071966,59.799968],[-109.072627,59.799581],[-109.07376,59.793681],[-109.074853,59.792064],[-109.077431,59.791149],[-109.08208,59.792519],[-109.089241,59.792641],[-109.115309,59.789234],[-109.117656,59.787786],[-109.11649,59.784277],[-109.116925,59.782297],[-109.120384,59.779952],[-109.122455,59.776145],[-109.12845,59.77472],[-109.129436,59.775194],[-109.129598,59.777081],[-109.138636,59.776581],[-109.140867,59.772864],[-109.145909,59.770332],[-109.15252,59.76347],[-109.155045,59.762133],[-109.158104,59.762097],[-109.161906,59.763247],[-109.163792,59.76551],[-109.164186,59.767891],[-109.163284,59.772962],[-109.1604,59.776848],[-109.159711,59.779183],[-109.171977,59.78478],[-109.191687,59.788374],[-109.221202,59.797252],[-109.243699,59.805537],[-109.252609,59.807772],[-109.289322,59.811024],[-109.378193,59.837424],[-109.387354,59.841243],[-109.392232,59.843602],[-109.396985,59.847292],[-109.402303,59.854411],[-109.4068,59.858684],[-109.414443,59.863995],[-109.426345,59.870407],[-109.431835,59.876339],[-109.431549,59.880229],[-109.428408,59.882253],[-109.422178,59.882946],[-109.418457,59.882463],[-109.414386,59.879085],[-109.405425,59.875838],[-109.393398,59.869099],[-109.389914,59.86619],[-109.387562,59.862928],[-109.386651,59.85294]],[[-108.762769,59.732221],[-108.786409,59.732917],[-108.801551,59.737275],[-108.810057,59.738726],[-108.817084,59.741675],[-108.829665,59.74903],[-108.848243,59.752648],[-108.856745,59.753078],[-108.884498,59.75132],[-108.892311,59.749452],[-108.89268,59.740331],[-108.900208,59.737284],[-108.90917,59.73491],[-108.914412,59.734526],[-108.936748,59.736182],[-108.951728,59.735577],[-108.957721,59.73672],[-108.962955,59.740063],[-108.964284,59.74224],[-108.961831,59.745441],[-108.95269,59.748224],[-108.922938,59.751218],[-108.848756,59.763962],[-108.835094,59.764221],[-108.827728,59.762959],[-108.818712,59.758324],[-108.812779,59.756847],[-108.8036,59.756875],[-108.801971,59.756112],[-108.803502,59.754818],[-108.811788,59.753023],[-108.813159,59.752215],[-108.812204,59.751033],[-108.802124,59.751088],[-108.787306,59.753988],[-108.781071,59.754388],[-108.77821,59.753525],[-108.776864,59.752231],[-108.777647,59.750819],[-108.77738,59.749083],[-108.773731,59.748316],[-108.762776,59.748401],[-108.756676,59.74928],[-108.741738,59.757352],[-108.716902,59.773114],[-108.712486,59.77414],[-108.704105,59.773582],[-108.703264,59.771274],[-108.707173,59.766115],[-108.707038,59.765223],[-108.702316,59.762721],[-108.705759,59.757693],[-108.70152,59.75468],[-108.698186,59.74996],[-108.694737,59.748465],[-108.693863,59.747327],[-108.693693,59.74489],[-108.694606,59.74325],[-108.698135,59.73978],[-108.702929,59.737181],[-108.706766,59.736622],[-108.711233,59.737485],[-108.723376,59.73754],[-108.740134,59.735813],[-108.754341,59.732703],[-108.762769,59.732221]],[[-108.837573,59.438789],[-108.847961,59.430978],[-108.857428,59.4319],[-108.866291,59.427598],[-108.868707,59.427719],[-108.880316,59.424646],[-108.922422,59.409514],[-108.934665,59.406453],[-108.942974,59.409908],[-108.951083,59.416084],[-108.871101,59.446768],[-108.853057,59.445095],[-108.847939,59.446047],[-108.834411,59.451802],[-108.831268,59.451161],[-108.822692,59.453319],[-108.804085,59.460137],[-108.792737,59.462759],[-108.786956,59.465267],[-108.778766,59.467359],[-108.801072,59.456802],[-108.82128,59.4485],[-108.837573,59.438789]],[[-108.896934,59.79006],[-108.896552,59.791355],[-108.895045,59.791741],[-108.878884,59.794191],[-108.877756,59.795437],[-108.87934,59.796203],[-108.883971,59.796435],[-108.884239,59.797806],[-108.881925,59.799223],[-108.845928,59.806454],[-108.843129,59.807922],[-108.840337,59.810798],[-108.837418,59.812068],[-108.825038,59.812794],[-108.822378,59.814188],[-108.821045,59.816005],[-108.821563,59.818676],[-108.821058,59.820606],[-108.819244,59.822387],[-108.814816,59.824119],[-108.785983,59.829529],[-108.775389,59.828612],[-108.774257,59.827669],[-108.775863,59.826513],[-108.789671,59.825836],[-108.809911,59.823411],[-108.81369,59.821432],[-108.812394,59.814493],[-108.804417,59.809884],[-108.804126,59.808375],[-108.807591,59.807305],[-108.812866,59.808521],[-108.822229,59.807712],[-108.830946,59.804618],[-108.834644,59.80268],[-108.835717,59.80034],[-108.836136,59.7948],[-108.839121,59.792147],[-108.847319,59.791423],[-108.86446,59.791859],[-108.891741,59.788917],[-108.896934,59.79006]],[[-104.42425,59.081919],[-104.40795,59.090879],[-104.401073,59.096026],[-104.396746,59.100673],[-104.389453,59.100548],[-104.389956,59.092531],[-104.373977,59.09266],[-104.374475,59.086664],[-104.388975,59.078626],[-104.400993,59.073744],[-104.411319,59.071864],[-104.419044,59.071538],[-104.424657,59.071563],[-104.429306,59.07339],[-104.428286,59.078444],[-104.42425,59.081919]],[[-108.943414,59.797574],[-108.94814,59.79423],[-108.957414,59.790642],[-108.97338,59.788312],[-108.978205,59.788361],[-108.979782,59.789179],[-108.981455,59.79373],[-108.983226,59.795772],[-108.988315,59.798047],[-109.001104,59.801397],[-109.001981,59.802293],[-108.995289,59.804183],[-108.987733,59.804683],[-108.966679,59.802662],[-108.945967,59.803922],[-108.943629,59.804243],[-108.939246,59.807488],[-108.937703,59.80557],[-108.93875,59.802386],[-108.943414,59.797574]],[[-103.646827,58.527552],[-103.632535,58.53274],[-103.62199,58.533667],[-103.614377,58.532248],[-103.611761,58.526576],[-103.613426,58.520355],[-103.616126,58.516671],[-103.621067,58.513753],[-103.629638,58.512359],[-103.637542,58.513483],[-103.645038,58.51787],[-103.647845,58.52607],[-103.646827,58.527552]],[[-103.902732,58.124163],[-103.912361,58.129741],[-103.912559,58.132096],[-103.916246,58.137189],[-103.915623,58.137719],[-103.888328,58.148064],[-103.885546,58.148645],[-103.878888,58.148088],[-103.875805,58.147003],[-103.876751,58.141838],[-103.879242,58.140411],[-103.888481,58.138283],[-103.890729,58.135958],[-103.893084,58.130512],[-103.898216,58.124745],[-103.900392,58.123936],[-103.902732,58.124163]],[[-108.665565,59.366713],[-108.653638,59.365639],[-108.651209,59.363322],[-108.654286,59.360875],[-108.666021,59.358514],[-108.669101,59.35595],[-108.661595,59.356255],[-108.658371,59.35813],[-108.643435,59.363195],[-108.633695,59.36543],[-108.626466,59.363993],[-108.618743,59.360294],[-108.610548,59.361175],[-108.606467,59.360387],[-108.604155,59.358554],[-108.608957,59.355685],[-108.618984,59.357833],[-108.627884,59.361519],[-108.632483,59.362211],[-108.64147,59.360183],[-108.661745,59.351978],[-108.671618,59.351825],[-108.676214,59.353836],[-108.676937,59.355007],[-108.672381,59.361986],[-108.670956,59.363025],[-108.670222,59.365071],[-108.665565,59.366713]],[[-106.014147,57.199887],[-106.009247,57.205333],[-106.008753,57.207786],[-106.006563,57.210625],[-105.998699,57.215412],[-105.994952,57.215992],[-105.991425,57.215427],[-105.991065,57.211678],[-105.992531,57.207704],[-105.99997,57.198476],[-106.013896,57.190516],[-106.016873,57.189511],[-106.022034,57.189436],[-106.022944,57.1907],[-106.021374,57.194002],[-106.014147,57.199887]],[[-103.651401,58.067493],[-103.641196,58.074409],[-103.634462,58.077147],[-103.627808,58.077778],[-103.626685,58.072498],[-103.6412,58.056848],[-103.646539,58.055851],[-103.651798,58.056961],[-103.652924,58.062241],[-103.651401,58.067493]]]}}]}