{"type":"FeatureCollection","features":[{"type":"Feature","id":0,"geometry":{"type":"Point","coordinates":[-109.36398,58.33401]},"properties":{"u":0.00013,"ph":"7.80"}},{"type":"Feature","id":1,"geometry":{"type":"Point","coordinates":[-109.31724,58.36529]},"properties":{"u":3.9999999999999996e-05,"ph":"7.60"}},{"type":"Feature","id":2,"geometry":{"type":"Point","coordinates":[-109.27194,58.41791]},"properties":{"u":3.9999999999999996e-05,"ph":"8.10"}},{"type":"Feature","id":3,"geometry":{"type":"Point","coordinates":[-109.22422,58.45588]},"properties":{"u":-9.999999999999999e-06,"ph":"7.70"}},{"type":"Feature","id":4,"geometry":{"type":"Point","coordinates":[-109.27531,58.45389]},"properties":{"u":4.9999999999999996e-05,"ph":"8.10"}},{"type":"Feature","id":5,"geometry":{"type":"Point","coordinates":[-109.20868,58.43322]},"properties":{"u":-9.999999999999999e-06,"ph":"6.70"}},{"type":"Feature","id":6,"geometry":{"type":"Point","coordinates":[-109.39378,58.36425]},"properties":{"u":-0.01,"ph":"7.10"}},{"type":"Feature","id":7,"geometry":{"type":"Point","coordinates":[-109.36903,58.39134]},"properties":{"u":-9.999999999999999e-06,"ph":"7.20"}},{"type":"Feature","id":8,"geometry":{"type":"Point","coordinates":[-109.37163,58.40911]},"properties":{"u":-9.999999999999999e-06,"ph":"8.30"}},{"type":"Feature","id":9,"geometry":{"type":"Point","coordinates":[-109.38997,58.4291]},"properties":{"u":-9.999999999999999e-06,"ph":"7.60"}},{"type":"Feature","id":10,"geometry":{"type":"Point","coordinates":[-109.58473,58.36628]},"properties":{"u":-9.999999999999999e-06,"ph":"6.50"}},{"type":"Feature","id":11,"geometry":{"type":"Point","coordinates":[-109.57706,58.38686]},"properties":{"u":-9.999999999999999e-06,"ph":"7.00"}},{"type":"Feature","id":12,"geometry":{"type":"Point","coordinates":[-109.54281,58.39837]},"properties":{"u":-9.999999999999999e-06,"ph":"6.60"}},{"type":"Feature","id":13,"geometry":{"type":"Point","coordinates":[-109.50814,58.40898]},"properties":{"u":-9.999999999999999e-06,"ph":"7.60"}},{"type":"Feature","id":14,"geometry":{"type":"Point","coordinates":[-109.64971,58.29871]},"properties":{"u":0.0006000000000000001,"ph":"7.60"}},{"type":"Feature","id":15,"geometry":{"type":"Point","coordinates":[-109.62157,58.30897]},"properties":{"u":0.00049,"ph":"7.70"}},{"type":"Feature","id":16,"geometry":{"type":"Point","coordinates":[-109.60892,58.31601]},"properties":{"u":0.00026,"ph":"7.60"}},{"type":"Feature","id":17,"geometry":{"type":"Point","coordinates":[-109.60394,58.3236]},"properties":{"u":0.00035999999999999997,"ph":"7.80"}},{"type":"Feature","id":18,"geometry":{"type":"Point","coordinates":[-109.58527,58.32092]},"properties":{"u":4.9999999999999996e-05,"ph":"7.00"}},{"type":"Feature","id":19,"geometry":{"type":"Point","coordinates":[-109.57996,58.33613]},"properties":{"u":0.0005099999999999999,"ph":"7.80"}},{"type":"Feature","id":20,"geometry":{"type":"Point","coordinates":[-109.53352,58.36436]},"properties":{"u":0.0007,"ph":"7.70"}},{"type":"Feature","id":21,"geometry":{"type":"Point","coordinates":[-109.54578,58.3883]},"properties":{"u":1.9999999999999998e-05,"ph":"7.10"}},{"type":"Feature","id":22,"geometry":{"type":"Point","coordinates":[-109.44118,58.38482]},"properties":{"u":-9.999999999999999e-06,"ph":"7.20"}},{"type":"Feature","id":23,"geometry":{"type":"Point","coordinates":[-109.43793,58.3612]},"properties":{"u":-9.999999999999999e-06,"ph":"7.00"}},{"type":"Feature","id":24,"geometry":{"type":"Point","coordinates":[-109.46677,58.35661]},"properties":{"u":-9.999999999999999e-06,"ph":"7.20"}},{"type":"Feature","id":25,"geometry":{"type":"Point","coordinates":[-109.12918,58.48665]},"properties":{"u":-9.999999999999999e-06,"ph":"6.20"}},{"type":"Feature","id":26,"geometry":{"type":"Point","coordinates":[-109.23187,58.56805]},"properties":{"u":-9.999999999999999e-06,"ph":"6.60"}},{"type":"Feature","id":27,"geometry":{"type":"Point","coordinates":[-109.29238,58.55248]},"properties":{"u":-9.999999999999999e-06,"ph":"7.40"}},{"type":"Feature","id":28,"geometry":{"type":"Point","coordinates":[-109.3298,58.52422]},"properties":{"u":0.00015999999999999999,"ph":"8.60"}},{"type":"Feature","id":29,"geometry":{"type":"Point","coordinates":[-109.24025,58.5383]},"properties":{"u":-9.999999999999999e-06,"ph":"7.60"}},{"type":"Feature","id":30,"geometry":{"type":"Point","coordinates":[-109.29449,58.49995]},"properties":{"u":0.00010999999999999999,"ph":"8.40"}},{"type":"Feature","id":31,"geometry":{"type":"Point","coordinates":[-109.35359,58.48411]},"properties":{"u":9.999999999999999e-06,"ph":"8.60"}},{"type":"Feature","id":32,"geometry":{"type":"Point","coordinates":[-109.41623,58.46401]},"properties":{"u":7e-05,"ph":"8.70"}},{"type":"Feature","id":33,"geometry":{"type":"Point","coordinates":[-109.40345,58.50966]},"properties":{"u":-9.999999999999999e-06,"ph":"8.30"}},{"type":"Feature","id":34,"geometry":{"type":"Point","coordinates":[-109.44802,58.44284]},"properties":{"u":-9.999999999999999e-06,"ph":"7.40"}},{"type":"Feature","id":35,"geometry":{"type":"Point","coordinates":[-109.51367,58.51144]},"properties":{"u":-9.999999999999999e-06,"ph":"7.80"}},{"type":"Feature","id":36,"geometry":{"type":"Point","coordinates":[-109.54992,58.5168]},"properties":{"u":9.999999999999999e-06,"ph":"7.40"}},{"type":"Feature","id":37,"geometry":{"type":"Point","coordinates":[-109.55851,58.485]},"properties":{"u":2.9999999999999997e-05,"ph":"7.70"}},{"type":"Feature","id":38,"geometry":{"type":"Point","coordinates":[-109.52611,58.47048]},"properties":{"u":-9.999999999999999e-06,"ph":"7.10"}},{"type":"Feature","id":39,"geometry":{"type":"Point","coordinates":[-109.56071,58.4628]},"properties":{"u":-9.999999999999999e-06,"ph":"6.40"}},{"type":"Feature","id":40,"geometry":{"type":"Point","coordinates":[-109.6114,58.45976]},"properties":{"u":-9.999999999999999e-06,"ph":"8.10"}},{"type":"Feature","id":41,"geometry":{"type":"Point","coordinates":[-109.63058,58.44043]},"properties":{"u":-9.999999999999999e-06,"ph":"7.70"}},{"type":"Feature","id":42,"geometry":{"type":"Point","coordinates":[-109.68485,58.40934]},"properties":{"u":-9.999999999999999e-06,"ph":"7.70"}},{"type":"Feature","id":43,"geometry":{"type":"Point","coordinates":[-109.72967,58.41226]},"properties":{"u":-9.999999999999999e-06,"ph":"7.90"}},{"type":"Feature","id":44,"geometry":{"type":"Point","coordinates":[-109.7281,58.38463]},"properties":{"u":-9.999999999999999e-06,"ph":"7.90"}},{"type":"Feature","id":45,"geometry":{"type":"Point","coordinates":[-109.65154,58.35151]},"properties":{"u":-9.999999999999999e-06,"ph":"7.70"}},{"type":"Feature","id":46,"geometry":{"type":"Point","coordinates":[-109.10322,58.38723]},"properties":{"u":-9.999999999999999e-06,"ph":"6.50"}},{"type":"Feature","id":47,"geometry":{"type":"Point","coordinates":[-109.09031,58.41264]},"properties":{"u":-9.999999999999999e-06,"ph":"6.50"}},{"type":"Feature","id":48,"geometry":{"type":"Point","coordinates":[-109.39935,58.56171]},"properties":{"u":-9.999999999999999e-06,"ph":"8.30"}},{"type":"Feature","id":49,"geometry":{"type":"Point","coordinates":[-109.47804,58.53101]},"properties":{"u":4.9999999999999996e-05,"ph":"8.20"}},{"type":"Feature","id":50,"geometry":{"type":"Point","coordinates":[-109.53064,58.60819]},"properties":{"u":1.9999999999999998e-05,"ph":"7.90"}},{"type":"Feature","id":51,"geometry":{"type":"Point","coordinates":[-109.5161,58.56559]},"properties":{"u":-9.999999999999999e-06,"ph":"8.20"}},{"type":"Feature","id":52,"geometry":{"type":"Point","coordinates":[-109.59019,58.56126]},"properties":{"u":-9.999999999999999e-06,"ph":"8.20"}},{"type":"Feature","id":53,"geometry":{"type":"Point","coordinates":[-109.69584,58.54013]},"properties":{"u":0.00021999999999999998,"ph":"8.20"}},{"type":"Feature","id":54,"geometry":{"type":"Point","coordinates":[-109.742,58.51028]},"properties":{"u":-4.9999999999999996e-05,"ph":"8.10"}},{"type":"Feature","id":55,"geometry":{"type":"Point","coordinates":[-109.67173,58.51901]},"properties":{"u":-4.9999999999999996e-05,"ph":"7.90"}},{"type":"Feature","id":56,"geometry":{"type":"Point","coordinates":[-109.73328,58.49021]},"properties":{"u":9.999999999999999e-06,"ph":"8.10"}},{"type":"Feature","id":57,"geometry":{"type":"Point","coordinates":[-109.76376,58.46468]},"properties":{"u":7e-05,"ph":"8.20"}},{"type":"Feature","id":58,"geometry":{"type":"Point","coordinates":[-109.60453,58.51425]},"properties":{"u":-9.999999999999999e-06,"ph":"8.00"}},{"type":"Feature","id":59,"geometry":{"type":"Point","coordinates":[-109.65482,58.47841]},"properties":{"u":-9.999999999999999e-06,"ph":"8.00"}},{"type":"Feature","id":60,"geometry":{"type":"Point","coordinates":[-109.68861,58.45788]},"properties":{"u":1.9999999999999998e-05,"ph":"8.60"}},{"type":"Feature","id":61,"geometry":{"type":"Point","coordinates":[-109.7168,58.4366]},"properties":{"u":-9.999999999999999e-06,"ph":"8.20"}},{"type":"Feature","id":62,"geometry":{"type":"Point","coordinates":[-109.58392,58.4186]},"properties":{"u":9.999999999999999e-06,"ph":"8.10"}},{"type":"Feature","id":63,"geometry":{"type":"Point","coordinates":[-109.68298,58.36777]},"properties":{"u":-9.999999999999999e-06,"ph":"7.30"}},{"type":"Feature","id":64,"geometry":{"type":"Point","coordinates":[-109.76513,58.36456]},"properties":{"u":-9.999999999999999e-06,"ph":"8.10"}},{"type":"Feature","id":65,"geometry":{"type":"Point","coordinates":[-109.6625,58.33253]},"properties":{"u":-9.999999999999999e-06,"ph":"8.60"}},{"type":"Feature","id":66,"geometry":{"type":"Point","coordinates":[-109.69332,58.31915]},"properties":{"u":0.00021999999999999998,"ph":"8.60"}},{"type":"Feature","id":67,"geometry":{"type":"Point","coordinates":[-109.68912,58.34045]},"properties":{"u":1.9999999999999998e-05,"ph":"8.50"}},{"type":"Feature","id":68,"geometry":{"type":"Point","coordinates":[-109.73349,58.34156]},"properties":{"u":9.999999999999999e-06,"ph":"8.30"}},{"type":"Feature","id":69,"geometry":{"type":"Point","coordinates":[-109.67704,58.28665]},"properties":{"u":0.00075,"ph":"8.50"}},{"type":"Feature","id":70,"geometry":{"type":"Point","coordinates":[-103.57805,58.29838]},"properties":{"u":7.999999999999999e-05,"ph":" "}},{"type":"Feature","id":71,"geometry":{"type":"Point","coordinates":[-103.60955,58.27385]},"properties":{"u":0,"ph":" "}},{"type":"Feature","id":72,"geometry":{"type":"Point","coordinates":[-103.63358,58.26548]},"properties":{"u":7e-05,"ph":" "}},{"type":"Feature","id":73,"geometry":{"type":"Point","coordinates":[-103.71505,58.19977]},"properties":{"u":0,"ph":" "}},{"type":"Feature","id":74,"geometry":{"type":"Point","coordinates":[-103.71165,58.19973]},"properties":{"u":0.0032,"ph":" "}},{"type":"Feature","id":75,"geometry":{"type":"Point","coordinates":[-103.80487,58.32675]},"properties":{"u":7.999999999999999e-05,"ph":" "}},{"type":"Feature","id":76,"geometry":{"type":"Point","coordinates":[-103.71846,58.30804]},"properties":{"u":8.999999999999999e-05,"ph":" "}},{"type":"Feature","id":77,"geometry":{"type":"Point","coordinates":[-103.71215,58.32675]},"properties":{"u":8.999999999999999e-05,"ph":" "}},{"type":"Feature","id":78,"geometry":{"type":"Point","coordinates":[-103.65892,58.33456]},"properties":{"u":7.999999999999999e-05,"ph":" "}},{"type":"Feature","id":79,"geometry":{"type":"Point","coordinates":[-103.70475,58.3565]},"properties":{"u":8.999999999999999e-05,"ph":" "}},{"type":"Feature","id":80,"geometry":{"type":"Point","coordinates":[-103.68223,58.36444]},"properties":{"u":8.999999999999999e-05,"ph":" "}},{"type":"Feature","id":81,"geometry":{"type":"Point","coordinates":[-103.66241,58.35966]},"properties":{"u":7.999999999999999e-05,"ph":" "}},{"type":"Feature","id":82,"geometry":{"type":"Point","coordinates":[-103.83385,58.36457]},"properties":{"u":8.999999999999999e-05,"ph":" "}},{"type":"Feature","id":83,"geometry":{"type":"Point","coordinates":[-103.86612,58.34977]},"properties":{"u":7.999999999999999e-05,"ph":" "}},{"type":"Feature","id":84,"geometry":{"type":"Point","coordinates":[-103.93715,58.34499]},"properties":{"u":8.999999999999999e-05,"ph":" "}},{"type":"Feature","id":85,"geometry":{"type":"Point","coordinates":[-103.89035,58.32303]},"properties":{"u":8.999999999999999e-05,"ph":" "}},{"type":"Feature","id":86,"geometry":{"type":"Point","coordinates":[-103.85492,58.33134]},"properties":{"u":7.999999999999999e-05,"ph":" "}},{"type":"Feature","id":87,"geometry":{"type":"Point","coordinates":[-103.86653,58.29435]},"properties":{"u":8.999999999999999e-05,"ph":" "}},{"type":"Feature","id":88,"geometry":{"type":"Point","coordinates":[-103.97942,58.31282]},"properties":{"u":7.999999999999999e-05,"ph":" "}},{"type":"Feature","id":89,"geometry":{"type":"Point","coordinates":[-103.9936,58.29451]},"properties":{"u":7.999999999999999e-05,"ph":" "}},{"type":"Feature","id":90,"geometry":{"type":"Point","coordinates":[-103.97732,58.26735]},"properties":{"u":8.999999999999999e-05,"ph":" "}},{"type":"Feature","id":91,"geometry":{"type":"Point","coordinates":[-103.98992,58.16595]},"properties":{"u":7e-05,"ph":" "}},{"type":"Feature","id":92,"geometry":{"type":"Point","coordinates":[-103.99292,58.15591]},"properties":{"u":7.999999999999999e-05,"ph":" "}},{"type":"Feature","id":93,"geometry":{"type":"Point","coordinates":[-103.88166,58.27355]},"properties":{"u":0.00015999999999999999,"ph":" "}},{"type":"Feature","id":94,"geometry":{"type":"Point","coordinates":[-103.86671,58.26174]},"properties":{"u":0.00010999999999999999,"ph":" "}},{"type":"Feature","id":95,"geometry":{"type":"Point","coordinates":[-103.83384,58.26127]},"properties":{"u":0.00014,"ph":" "}},{"type":"Feature","id":96,"geometry":{"type":"Point","coordinates":[-103.79492,58.29298]},"properties":{"u":0.00015999999999999999,"ph":" "}},{"type":"Feature","id":97,"geometry":{"type":"Point","coordinates":[-103.76876,58.27027]},"properties":{"u":0.0001,"ph":" "}},{"type":"Feature","id":98,"geometry":{"type":"Point","coordinates":[-103.78679,58.21655]},"properties":{"u":0.00010999999999999999,"ph":" "}},{"type":"Feature","id":99,"geometry":{"type":"Point","coordinates":[-103.84883,58.23509]},"properties":{"u":0.0001,"ph":" "}},{"type":"Feature","id":100,"geometry":{"type":"Point","coordinates":[-103.88409,58.20198]},"properties":{"u":0.00023999999999999998,"ph":" "}},{"type":"Feature","id":101,"geometry":{"type":"Point","coordinates":[-103.86365,58.18177]},"properties":{"u":0.00014,"ph":" "}},{"type":"Feature","id":102,"geometry":{"type":"Point","coordinates":[-103.88348,58.16147]},"properties":{"u":7.999999999999999e-05,"ph":" "}},{"type":"Feature","id":103,"geometry":{"type":"Point","coordinates":[-103.92668,58.13794]},"properties":{"u":0.0002,"ph":" "}},{"type":"Feature","id":104,"geometry":{"type":"Point","coordinates":[-103.99085,58.13299]},"properties":{"u":0.00013,"ph":" "}},{"type":"Feature","id":105,"geometry":{"type":"Point","coordinates":[-103.75189,58.11997]},"properties":{"u":0.00015999999999999999,"ph":"6.90"}},{"type":"Feature","id":106,"geometry":{"type":"Point","coordinates":[-103.83221,58.13976]},"properties":{"u":0.00073,"ph":"6.90"}},{"type":"Feature","id":107,"geometry":{"type":"Point","coordinates":[-103.89348,58.12922]},"properties":{"u":1.9999999999999998e-05,"ph":"6.80"}},{"type":"Feature","id":108,"geometry":{"type":"Point","coordinates":[-103.92515,58.13752]},"properties":{"u":9.999999999999999e-06,"ph":"6.90"}},{"type":"Feature","id":109,"geometry":{"type":"Point","coordinates":[-103.97681,58.13903]},"properties":{"u":9.999999999999999e-06,"ph":"7.10"}},{"type":"Feature","id":110,"geometry":{"type":"Point","coordinates":[-103.97681,58.13903]},"properties":{"u":9.999999999999999e-06,"ph":"7.10"}},{"type":"Feature","id":111,"geometry":{"type":"Point","coordinates":[-103.76667,58.13488]},"properties":{"u":0.00043,"ph":"6.60"}},{"type":"Feature","id":112,"geometry":{"type":"Point","coordinates":[-103.96486,58.17553]},"properties":{"u":9.999999999999999e-06,"ph":"6.70"}},{"type":"Feature","id":113,"geometry":{"type":"Point","coordinates":[-103.91995,58.19151]},"properties":{"u":9.999999999999999e-06,"ph":"6.50"}},{"type":"Feature","id":114,"geometry":{"type":"Point","coordinates":[-103.87205,58.19237]},"properties":{"u":9.999999999999999e-06,"ph":"6.70"}},{"type":"Feature","id":115,"geometry":{"type":"Point","coordinates":[-103.82579,58.19531]},"properties":{"u":1.9999999999999998e-05,"ph":"6.70"}},{"type":"Feature","id":116,"geometry":{"type":"Point","coordinates":[-103.78752,58.19666]},"properties":{"u":9.999999999999999e-06,"ph":"6.70"}},{"type":"Feature","id":117,"geometry":{"type":"Point","coordinates":[-103.75572,58.19803]},"properties":{"u":1.9999999999999998e-05,"ph":"7.00"}},{"type":"Feature","id":118,"geometry":{"type":"Point","coordinates":[-103.68808,58.21641]},"properties":{"u":0.0009000000000000001,"ph":"6.60"}},{"type":"Feature","id":119,"geometry":{"type":"Point","coordinates":[-103.64474,58.25525]},"properties":{"u":9.999999999999999e-06,"ph":"5.00"}},{"type":"Feature","id":120,"geometry":{"type":"Point","coordinates":[-103.75412,58.2584]},"properties":{"u":9.999999999999999e-06,"ph":"5.10"}},{"type":"Feature","id":121,"geometry":{"type":"Point","coordinates":[-103.77205,58.26873]},"properties":{"u":1.9999999999999998e-05,"ph":"5.60"}},{"type":"Feature","id":122,"geometry":{"type":"Point","coordinates":[-103.83017,58.25571]},"properties":{"u":9.999999999999999e-06,"ph":"5.70"}},{"type":"Feature","id":123,"geometry":{"type":"Point","coordinates":[-103.83613,58.26243]},"properties":{"u":9.999999999999999e-06,"ph":"5.90"}},{"type":"Feature","id":124,"geometry":{"type":"Point","coordinates":[-103.86907,58.26177]},"properties":{"u":9.999999999999999e-06,"ph":"6.50"}},{"type":"Feature","id":125,"geometry":{"type":"Point","coordinates":[-103.88486,58.27341]},"properties":{"u":9.999999999999999e-06,"ph":"6.70"}},{"type":"Feature","id":126,"geometry":{"type":"Point","coordinates":[-103.88486,58.27341]},"properties":{"u":9.999999999999999e-06,"ph":"6.70"}},{"type":"Feature","id":127,"geometry":{"type":"Point","coordinates":[-103.908,58.26987]},"properties":{"u":9.999999999999999e-06,"ph":"6.50"}},{"type":"Feature","id":128,"geometry":{"type":"Point","coordinates":[-103.82565,58.29297]},"properties":{"u":9.999999999999999e-06,"ph":"6.50"}},{"type":"Feature","id":129,"geometry":{"type":"Point","coordinates":[-103.9018,58.28784]},"properties":{"u":9.999999999999999e-06,"ph":"6.70"}},{"type":"Feature","id":130,"geometry":{"type":"Point","coordinates":[-103.87166,58.29448]},"properties":{"u":9.999999999999999e-06,"ph":"6.80"}},{"type":"Feature","id":131,"geometry":{"type":"Point","coordinates":[-103.85793,58.31031]},"properties":{"u":9.999999999999999e-06,"ph":"6.70"}},{"type":"Feature","id":132,"geometry":{"type":"Point","coordinates":[-103.834,58.32171]},"properties":{"u":9.999999999999999e-06,"ph":"6.80"}},{"type":"Feature","id":133,"geometry":{"type":"Point","coordinates":[-103.82776,58.33362]},"properties":{"u":9.999999999999999e-06,"ph":"6.80"}},{"type":"Feature","id":134,"geometry":{"type":"Point","coordinates":[-103.78282,58.31861]},"properties":{"u":9.999999999999999e-06,"ph":"6.60"}},{"type":"Feature","id":135,"geometry":{"type":"Point","coordinates":[-103.77311,58.32389]},"properties":{"u":9.999999999999999e-06,"ph":"6.60"}},{"type":"Feature","id":136,"geometry":{"type":"Point","coordinates":[-103.75623,58.32801]},"properties":{"u":9.999999999999999e-06,"ph":"6.80"}},{"type":"Feature","id":137,"geometry":{"type":"Point","coordinates":[-103.78137,58.35579]},"properties":{"u":9.999999999999999e-06,"ph":"6.60"}},{"type":"Feature","id":138,"geometry":{"type":"Point","coordinates":[-103.78039,58.37167]},"properties":{"u":9.999999999999999e-06,"ph":"6.10"}},{"type":"Feature","id":139,"geometry":{"type":"Point","coordinates":[-103.81426,58.3544]},"properties":{"u":3.9999999999999996e-05,"ph":"6.60"}},{"type":"Feature","id":140,"geometry":{"type":"Point","coordinates":[-103.86817,58.34901]},"properties":{"u":4.9999999999999996e-05,"ph":"6.90"}},{"type":"Feature","id":141,"geometry":{"type":"Point","coordinates":[-103.88037,58.33874]},"properties":{"u":4.9999999999999996e-05,"ph":"6.60"}},{"type":"Feature","id":142,"geometry":{"type":"Point","coordinates":[-103.86154,58.329]},"properties":{"u":4.9999999999999996e-05,"ph":"6.60"}},{"type":"Feature","id":143,"geometry":{"type":"Point","coordinates":[-103.86154,58.329]},"properties":{"u":2.9999999999999997e-05,"ph":"6.70"}},{"type":"Feature","id":144,"geometry":{"type":"Point","coordinates":[-103.89646,58.32176]},"properties":{"u":2.9999999999999997e-05,"ph":"6.60"}},{"type":"Feature","id":145,"geometry":{"type":"Point","coordinates":[-103.94454,58.29769]},"properties":{"u":8.999999999999999e-05,"ph":"6.50"}},{"type":"Feature","id":146,"geometry":{"type":"Point","coordinates":[-103.98243,58.26636]},"properties":{"u":9.999999999999999e-06,"ph":"6.50"}},{"type":"Feature","id":147,"geometry":{"type":"Point","coordinates":[-103.96756,58.25993]},"properties":{"u":3.9999999999999996e-05,"ph":"6.40"}},{"type":"Feature","id":148,"geometry":{"type":"Point","coordinates":[-103.9011,58.25222]},"properties":{"u":3.9999999999999996e-05,"ph":"6.30"}},{"type":"Feature","id":149,"geometry":{"type":"Point","coordinates":[-103.99262,58.25505]},"properties":{"u":0.00033,"ph":"6.20"}},{"type":"Feature","id":150,"geometry":{"type":"Point","coordinates":[-103.95373,58.24538]},"properties":{"u":0.00021999999999999998,"ph":"6.10"}},{"type":"Feature","id":151,"geometry":{"type":"Point","coordinates":[-103.84732,58.23654]},"properties":{"u":0.00023999999999999998,"ph":"7.00"}},{"type":"Feature","id":152,"geometry":{"type":"Point","coordinates":[-103.77287,58.23399]},"properties":{"u":0.00023999999999999998,"ph":"6.70"}},{"type":"Feature","id":153,"geometry":{"type":"Point","coordinates":[-103.75219,58.24287]},"properties":{"u":0.00030000000000000003,"ph":"5.80"}},{"type":"Feature","id":154,"geometry":{"type":"Point","coordinates":[-103.72049,58.23716]},"properties":{"u":0.00015999999999999999,"ph":"5.90"}},{"type":"Feature","id":155,"geometry":{"type":"Point","coordinates":[-103.65691,58.24668]},"properties":{"u":0.00015,"ph":"4.90"}},{"type":"Feature","id":156,"geometry":{"type":"Point","coordinates":[-103.67355,58.23229]},"properties":{"u":0.00026,"ph":"5.70"}},{"type":"Feature","id":157,"geometry":{"type":"Point","coordinates":[-103.73973,58.21813]},"properties":{"u":0.00035,"ph":"5.70"}},{"type":"Feature","id":158,"geometry":{"type":"Point","coordinates":[-103.79821,58.21116]},"properties":{"u":3.9999999999999996e-05,"ph":"7.30"}},{"type":"Feature","id":159,"geometry":{"type":"Point","coordinates":[-103.83778,58.21613]},"properties":{"u":0.00017999999999999998,"ph":"7.00"}},{"type":"Feature","id":160,"geometry":{"type":"Point","coordinates":[-103.8672,58.21394]},"properties":{"u":5.9999999999999995e-05,"ph":"6.60"}},{"type":"Feature","id":161,"geometry":{"type":"Point","coordinates":[-103.96514,58.21967]},"properties":{"u":0.00029,"ph":"5.80"}},{"type":"Feature","id":162,"geometry":{"type":"Point","coordinates":[-103.97944,58.22553]},"properties":{"u":0.00017999999999999998,"ph":"5.40"}},{"type":"Feature","id":163,"geometry":{"type":"Point","coordinates":[-103.99882,58.22485]},"properties":{"u":3.9999999999999996e-05,"ph":"6.10"}},{"type":"Feature","id":164,"geometry":{"type":"Point","coordinates":[-103.98632,58.20105]},"properties":{"u":5.9999999999999995e-05,"ph":"6.20"}},{"type":"Feature","id":165,"geometry":{"type":"Point","coordinates":[-103.99882,58.22485]},"properties":{"u":2.9999999999999997e-05,"ph":"6.40"}},{"type":"Feature","id":166,"geometry":{"type":"Point","coordinates":[-103.99543,58.18141]},"properties":{"u":3.9999999999999996e-05,"ph":"6.30"}},{"type":"Feature","id":167,"geometry":{"type":"Point","coordinates":[-103.99122,58.14408]},"properties":{"u":3.9999999999999996e-05,"ph":"5.60"}},{"type":"Feature","id":168,"geometry":{"type":"Point","coordinates":[-103.99207,58.13265]},"properties":{"u":2.9999999999999997e-05,"ph":"6.50"}},{"type":"Feature","id":169,"geometry":{"type":"Point","coordinates":[-103.7325,58.3522]},"properties":{"u":9.999999999999999e-06,"ph":"5.70"}},{"type":"Feature","id":170,"geometry":{"type":"Point","coordinates":[-103.7009,58.34529]},"properties":{"u":4.9999999999999996e-05,"ph":"6.20"}},{"type":"Feature","id":171,"geometry":{"type":"Point","coordinates":[-103.70733,58.32842]},"properties":{"u":3.9999999999999996e-05,"ph":"7.00"}},{"type":"Feature","id":172,"geometry":{"type":"Point","coordinates":[-103.70931,58.31328]},"properties":{"u":4.9999999999999996e-05,"ph":"6.70"}},{"type":"Feature","id":173,"geometry":{"type":"Point","coordinates":[-103.72943,58.30789]},"properties":{"u":2.9999999999999997e-05,"ph":"6.70"}},{"type":"Feature","id":174,"geometry":{"type":"Point","coordinates":[-103.75619,58.30488]},"properties":{"u":4.9999999999999996e-05,"ph":"6.50"}},{"type":"Feature","id":175,"geometry":{"type":"Point","coordinates":[-103.75619,58.30488]},"properties":{"u":4.9999999999999996e-05,"ph":"6.50"}},{"type":"Feature","id":176,"geometry":{"type":"Point","coordinates":[-103.77938,58.29411]},"properties":{"u":3.9999999999999996e-05,"ph":"6.40"}},{"type":"Feature","id":177,"geometry":{"type":"Point","coordinates":[-103.73389,58.29234]},"properties":{"u":3.9999999999999996e-05,"ph":"6.40"}},{"type":"Feature","id":178,"geometry":{"type":"Point","coordinates":[-103.7081,58.295]},"properties":{"u":3.9999999999999996e-05,"ph":"6.30"}},{"type":"Feature","id":179,"geometry":{"type":"Point","coordinates":[-103.86777,58.15814]},"properties":{"u":0.0013000000000000002,"ph":"6.80"}},{"type":"Feature","id":180,"geometry":{"type":"Point","coordinates":[-103.67484,58.28928]},"properties":{"u":4.9999999999999996e-05,"ph":"6.30"}},{"type":"Feature","id":181,"geometry":{"type":"Point","coordinates":[-103.68971,58.27107]},"properties":{"u":3.9999999999999996e-05,"ph":"6.20"}},{"type":"Feature","id":182,"geometry":{"type":"Point","coordinates":[-103.72639,58.19773]},"properties":{"u":2.3000000000000003,"ph":"7.60"}},{"type":"Feature","id":183,"geometry":{"type":"Point","coordinates":[-103.73169,58.1812]},"properties":{"u":0.008,"ph":"7.10"}},{"type":"Feature","id":184,"geometry":{"type":"Point","coordinates":[-103.77106,58.18242]},"properties":{"u":0.00275,"ph":"6.90"}},{"type":"Feature","id":185,"geometry":{"type":"Point","coordinates":[-103.81558,58.17996]},"properties":{"u":0.00235,"ph":"6.80"}},{"type":"Feature","id":186,"geometry":{"type":"Point","coordinates":[-103.89913,58.17204]},"properties":{"u":0.0011899999999999999,"ph":"6.30"}},{"type":"Feature","id":187,"geometry":{"type":"Point","coordinates":[-103.91921,58.17034]},"properties":{"u":0.00109,"ph":"6.30"}},{"type":"Feature","id":188,"geometry":{"type":"Point","coordinates":[-103.9169,58.15629]},"properties":{"u":0.00078,"ph":"6.10"}},{"type":"Feature","id":189,"geometry":{"type":"Point","coordinates":[-103.82757,58.15792]},"properties":{"u":0.00020999999999999998,"ph":"6.10"}},{"type":"Feature","id":190,"geometry":{"type":"Point","coordinates":[-103.80031,58.16346]},"properties":{"u":0.00033,"ph":"6.10"}},{"type":"Feature","id":191,"geometry":{"type":"Point","coordinates":[-103.75099,58.14538]},"properties":{"u":0.00137,"ph":"6.70"}},{"type":"Feature","id":192,"geometry":{"type":"Point","coordinates":[-103.72504,58.14416]},"properties":{"u":0.016,"ph":"5.10"}},{"type":"Feature","id":193,"geometry":{"type":"Point","coordinates":[-103.71342,58.13078]},"properties":{"u":0.00073,"ph":"5.80"}},{"type":"Feature","id":194,"geometry":{"type":"Point","coordinates":[-103.59965,58.36843]},"properties":{"u":0.00018999999999999998,"ph":"6.40"}},{"type":"Feature","id":195,"geometry":{"type":"Point","coordinates":[-103.67206,58.36857]},"properties":{"u":7e-05,"ph":"6.70"}},{"type":"Feature","id":196,"geometry":{"type":"Point","coordinates":[-103.6626,58.35872]},"properties":{"u":0.00013,"ph":"6.60"}},{"type":"Feature","id":197,"geometry":{"type":"Point","coordinates":[-103.63124,58.35298]},"properties":{"u":2.9999999999999997e-05,"ph":"6.30"}},{"type":"Feature","id":198,"geometry":{"type":"Point","coordinates":[-103.62814,58.32706]},"properties":{"u":3.9999999999999996e-05,"ph":"6.20"}},{"type":"Feature","id":199,"geometry":{"type":"Point","coordinates":[-103.65324,58.32853]},"properties":{"u":4.9999999999999996e-05,"ph":"5.90"}},{"type":"Feature","id":200,"geometry":{"type":"Point","coordinates":[-103.66301,58.31685]},"properties":{"u":8.999999999999999e-05,"ph":"6.20"}},{"type":"Feature","id":201,"geometry":{"type":"Point","coordinates":[-103.63694,58.31642]},"properties":{"u":9.999999999999999e-06,"ph":"6.70"}},{"type":"Feature","id":202,"geometry":{"type":"Point","coordinates":[-103.57858,58.29658]},"properties":{"u":0.00013,"ph":"6.30"}},{"type":"Feature","id":203,"geometry":{"type":"Point","coordinates":[-103.57852,58.28841]},"properties":{"u":0.00039,"ph":"6.10"}},{"type":"Feature","id":204,"geometry":{"type":"Point","coordinates":[-103.60962,58.27474]},"properties":{"u":0.00029,"ph":"6.00"}},{"type":"Feature","id":205,"geometry":{"type":"Point","coordinates":[-103.61541,58.27895]},"properties":{"u":4.9999999999999996e-05,"ph":"5.40"}},{"type":"Feature","id":206,"geometry":{"type":"Point","coordinates":[-103.61541,58.27895]},"properties":{"u":0.00010999999999999999,"ph":"5.30"}},{"type":"Feature","id":207,"geometry":{"type":"Point","coordinates":[-103.63102,58.26822]},"properties":{"u":0.00033999999999999997,"ph":"5.90"}},{"type":"Feature","id":208,"geometry":{"type":"Point","coordinates":[-103.65435,58.19048]},"properties":{"u":0.0005899999999999999,"ph":"6.10"}},{"type":"Feature","id":209,"geometry":{"type":"Point","coordinates":[-103.64274,58.17607]},"properties":{"u":0.0002,"ph":"6.10"}},{"type":"Feature","id":210,"geometry":{"type":"Point","coordinates":[-103.67952,58.15899]},"properties":{"u":0.00041999999999999996,"ph":"5.90"}},{"type":"Feature","id":211,"geometry":{"type":"Point","coordinates":[-103.6522,58.1408]},"properties":{"u":0.00021999999999999998,"ph":"6.00"}},{"type":"Feature","id":212,"geometry":{"type":"Point","coordinates":[-103.96461,58.34063]},"properties":{"u":4.9999999999999996e-05,"ph":"6.50"}},{"type":"Feature","id":213,"geometry":{"type":"Point","coordinates":[-103.94256,58.34692]},"properties":{"u":4.9999999999999996e-05,"ph":"6.30"}},{"type":"Feature","id":214,"geometry":{"type":"Point","coordinates":[-103.95422,58.35124]},"properties":{"u":4.9999999999999996e-05,"ph":"6.30"}},{"type":"Feature","id":215,"geometry":{"type":"Point","coordinates":[-103.96129,58.34914]},"properties":{"u":4.9999999999999996e-05,"ph":"6.10"}},{"type":"Feature","id":216,"geometry":{"type":"Point","coordinates":[-103.9736,58.34879]},"properties":{"u":4.9999999999999996e-05,"ph":"6.00"}},{"type":"Feature","id":217,"geometry":{"type":"Point","coordinates":[-103.95826,58.35908]},"properties":{"u":4.9999999999999996e-05,"ph":"5.60"}},{"type":"Feature","id":218,"geometry":{"type":"Point","coordinates":[-103.92747,58.36009]},"properties":{"u":4.9999999999999996e-05,"ph":"5.20"}},{"type":"Feature","id":219,"geometry":{"type":"Point","coordinates":[-103.93527,58.36761]},"properties":{"u":4.9999999999999996e-05,"ph":"6.10"}},{"type":"Feature","id":220,"geometry":{"type":"Point","coordinates":[-103.92392,58.36985]},"properties":{"u":4.9999999999999996e-05,"ph":"6.40"}},{"type":"Feature","id":221,"geometry":{"type":"Point","coordinates":[-103.87281,58.37552]},"properties":{"u":4.9999999999999996e-05,"ph":"5.70"}},{"type":"Feature","id":222,"geometry":{"type":"Point","coordinates":[-103.88404,58.3607]},"properties":{"u":4.9999999999999996e-05,"ph":"5.80"}},{"type":"Feature","id":223,"geometry":{"type":"Point","coordinates":[-103.86599,58.35911]},"properties":{"u":4.9999999999999996e-05,"ph":"6.60"}},{"type":"Feature","id":224,"geometry":{"type":"Point","coordinates":[-103.862,58.36635]},"properties":{"u":4.9999999999999996e-05,"ph":"6.50"}},{"type":"Feature","id":225,"geometry":{"type":"Point","coordinates":[-103.84945,58.36309]},"properties":{"u":4.9999999999999996e-05,"ph":"6.80"}},{"type":"Feature","id":226,"geometry":{"type":"Point","coordinates":[-103.83578,58.36297]},"properties":{"u":4.9999999999999996e-05,"ph":"6.60"}},{"type":"Feature","id":227,"geometry":{"type":"Point","coordinates":[-103.83861,58.37063]},"properties":{"u":4.9999999999999996e-05,"ph":"6.50"}},{"type":"Feature","id":228,"geometry":{"type":"Point","coordinates":[-103.78027,58.37179]},"properties":{"u":4.9999999999999996e-05,"ph":"6.30"}},{"type":"Feature","id":229,"geometry":{"type":"Point","coordinates":[-103.76579,58.37013]},"properties":{"u":4.9999999999999996e-05,"ph":"6.30"}},{"type":"Feature","id":230,"geometry":{"type":"Point","coordinates":[-103.71831,58.36876]},"properties":{"u":4.9999999999999996e-05,"ph":"5.60"}},{"type":"Feature","id":231,"geometry":{"type":"Point","coordinates":[-103.70349,58.36277]},"properties":{"u":4.9999999999999996e-05,"ph":"6.20"}},{"type":"Feature","id":232,"geometry":{"type":"Point","coordinates":[-103.69582,58.35767]},"properties":{"u":4.9999999999999996e-05,"ph":"6.00"}},{"type":"Feature","id":233,"geometry":{"type":"Point","coordinates":[-103.68906,58.35553]},"properties":{"u":4.9999999999999996e-05,"ph":"6.50"}},{"type":"Feature","id":234,"geometry":{"type":"Point","coordinates":[-103.68274,58.36454]},"properties":{"u":4.9999999999999996e-05,"ph":"6.60"}},{"type":"Feature","id":235,"geometry":{"type":"Point","coordinates":[-103.67109,58.36972]},"properties":{"u":4.9999999999999996e-05,"ph":"7.00"}},{"type":"Feature","id":236,"geometry":{"type":"Point","coordinates":[-103.6131,58.36201]},"properties":{"u":4.9999999999999996e-05,"ph":"6.50"}},{"type":"Feature","id":237,"geometry":{"type":"Point","coordinates":[-103.63343,58.35333]},"properties":{"u":4.9999999999999996e-05,"ph":"6.00"}},{"type":"Feature","id":238,"geometry":{"type":"Point","coordinates":[-103.67217,58.35015]},"properties":{"u":4.9999999999999996e-05,"ph":"6.60"}},{"type":"Feature","id":239,"geometry":{"type":"Point","coordinates":[-103.68626,58.34814]},"properties":{"u":4.9999999999999996e-05,"ph":"6.60"}},{"type":"Feature","id":240,"geometry":{"type":"Point","coordinates":[-103.71095,58.34111]},"properties":{"u":4.9999999999999996e-05,"ph":"6.70"}},{"type":"Feature","id":241,"geometry":{"type":"Point","coordinates":[-103.72494,58.34628]},"properties":{"u":4.9999999999999996e-05,"ph":"7.00"}},{"type":"Feature","id":242,"geometry":{"type":"Point","coordinates":[-103.73327,58.35229]},"properties":{"u":4.9999999999999996e-05,"ph":"6.00"}},{"type":"Feature","id":243,"geometry":{"type":"Point","coordinates":[-103.74885,58.34643]},"properties":{"u":4.9999999999999996e-05,"ph":"6.50"}},{"type":"Feature","id":244,"geometry":{"type":"Point","coordinates":[-103.80672,58.35309]},"properties":{"u":4.9999999999999996e-05,"ph":"6.50"}},{"type":"Feature","id":245,"geometry":{"type":"Point","coordinates":[-103.81552,58.35542]},"properties":{"u":4.9999999999999996e-05,"ph":"6.20"}},{"type":"Feature","id":246,"geometry":{"type":"Point","coordinates":[-103.83225,58.35611]},"properties":{"u":4.9999999999999996e-05,"ph":"6.90"}},{"type":"Feature","id":247,"geometry":{"type":"Point","coordinates":[-103.85199,58.3482]},"properties":{"u":4.9999999999999996e-05,"ph":"6.60"}},{"type":"Feature","id":248,"geometry":{"type":"Point","coordinates":[-103.85864,58.34323]},"properties":{"u":4.9999999999999996e-05,"ph":"6.60"}},{"type":"Feature","id":249,"geometry":{"type":"Point","coordinates":[-103.88543,58.34904]},"properties":{"u":4.9999999999999996e-05,"ph":"6.80"}},{"type":"Feature","id":250,"geometry":{"type":"Point","coordinates":[-103.89213,58.34236]},"properties":{"u":4.9999999999999996e-05,"ph":"6.40"}},{"type":"Feature","id":251,"geometry":{"type":"Point","coordinates":[-103.95787,58.33761]},"properties":{"u":4.9999999999999996e-05,"ph":"5.10"}},{"type":"Feature","id":252,"geometry":{"type":"Point","coordinates":[-103.96659,58.33149]},"properties":{"u":4.9999999999999996e-05,"ph":"6.10"}},{"type":"Feature","id":253,"geometry":{"type":"Point","coordinates":[-103.96019,58.32272]},"properties":{"u":4.9999999999999996e-05,"ph":"6.40"}},{"type":"Feature","id":254,"geometry":{"type":"Point","coordinates":[-103.94795,58.32666]},"properties":{"u":4.9999999999999996e-05,"ph":"6.40"}},{"type":"Feature","id":255,"geometry":{"type":"Point","coordinates":[-103.93848,58.33476]},"properties":{"u":4.9999999999999996e-05,"ph":"6.60"}},{"type":"Feature","id":256,"geometry":{"type":"Point","coordinates":[-103.93072,58.33173]},"properties":{"u":4.9999999999999996e-05,"ph":"6.30"}},{"type":"Feature","id":257,"geometry":{"type":"Point","coordinates":[-103.92451,58.33383]},"properties":{"u":4.9999999999999996e-05,"ph":"6.70"}},{"type":"Feature","id":258,"geometry":{"type":"Point","coordinates":[-103.9162,58.33736]},"properties":{"u":4.9999999999999996e-05,"ph":"6.60"}},{"type":"Feature","id":259,"geometry":{"type":"Point","coordinates":[-103.91152,58.33417]},"properties":{"u":4.9999999999999996e-05,"ph":"6.50"}},{"type":"Feature","id":260,"geometry":{"type":"Point","coordinates":[-103.89679,58.33539]},"properties":{"u":4.9999999999999996e-05,"ph":"6.10"}},{"type":"Feature","id":261,"geometry":{"type":"Point","coordinates":[-103.80448,58.33843]},"properties":{"u":4.9999999999999996e-05,"ph":"6.70"}},{"type":"Feature","id":262,"geometry":{"type":"Point","coordinates":[-103.74981,58.33853]},"properties":{"u":4.9999999999999996e-05,"ph":"6.80"}},{"type":"Feature","id":263,"geometry":{"type":"Point","coordinates":[-103.73826,58.33689]},"properties":{"u":4.9999999999999996e-05,"ph":"6.70"}},{"type":"Feature","id":264,"geometry":{"type":"Point","coordinates":[-103.72764,58.33293]},"properties":{"u":4.9999999999999996e-05,"ph":"6.70"}},{"type":"Feature","id":265,"geometry":{"type":"Point","coordinates":[-103.69895,58.33282]},"properties":{"u":4.9999999999999996e-05,"ph":"6.70"}},{"type":"Feature","id":266,"geometry":{"type":"Point","coordinates":[-103.68282,58.34415]},"properties":{"u":4.9999999999999996e-05,"ph":"6.60"}},{"type":"Feature","id":267,"geometry":{"type":"Point","coordinates":[-103.67708,58.34688]},"properties":{"u":4.9999999999999996e-05,"ph":"6.40"}},{"type":"Feature","id":268,"geometry":{"type":"Point","coordinates":[-103.63755,58.34844]},"properties":{"u":4.9999999999999996e-05,"ph":"5.90"}},{"type":"Feature","id":269,"geometry":{"type":"Point","coordinates":[-103.62108,58.33694]},"properties":{"u":4.9999999999999996e-05,"ph":"6.40"}},{"type":"Feature","id":270,"geometry":{"type":"Point","coordinates":[-103.62901,58.33963]},"properties":{"u":4.9999999999999996e-05,"ph":"6.30"}},{"type":"Feature","id":271,"geometry":{"type":"Point","coordinates":[-103.64124,58.3368]},"properties":{"u":4.9999999999999996e-05,"ph":"6.00"}},{"type":"Feature","id":272,"geometry":{"type":"Point","coordinates":[-103.62653,58.32874]},"properties":{"u":4.9999999999999996e-05,"ph":"5.70"}},{"type":"Feature","id":273,"geometry":{"type":"Point","coordinates":[-103.63562,58.32317]},"properties":{"u":4.9999999999999996e-05,"ph":"5.80"}},{"type":"Feature","id":274,"geometry":{"type":"Point","coordinates":[-103.66471,58.30327]},"properties":{"u":4.9999999999999996e-05,"ph":"5.70"}},{"type":"Feature","id":275,"geometry":{"type":"Point","coordinates":[-103.67676,58.30061]},"properties":{"u":4.9999999999999996e-05,"ph":"5.90"}},{"type":"Feature","id":276,"geometry":{"type":"Point","coordinates":[-103.67871,58.31231]},"properties":{"u":4.9999999999999996e-05,"ph":"4.70"}},{"type":"Feature","id":277,"geometry":{"type":"Point","coordinates":[-103.68715,58.31473]},"properties":{"u":4.9999999999999996e-05,"ph":"4.80"}},{"type":"Feature","id":278,"geometry":{"type":"Point","coordinates":[-103.69547,58.31149]},"properties":{"u":4.9999999999999996e-05,"ph":"5.90"}},{"type":"Feature","id":279,"geometry":{"type":"Point","coordinates":[-103.72064,58.30923]},"properties":{"u":4.9999999999999996e-05,"ph":"6.60"}},{"type":"Feature","id":280,"geometry":{"type":"Point","coordinates":[-103.73196,58.32201]},"properties":{"u":4.9999999999999996e-05,"ph":"6.60"}},{"type":"Feature","id":281,"geometry":{"type":"Point","coordinates":[-103.7499,58.32147]},"properties":{"u":4.9999999999999996e-05,"ph":"6.40"}},{"type":"Feature","id":282,"geometry":{"type":"Point","coordinates":[-103.75013,58.31509]},"properties":{"u":4.9999999999999996e-05,"ph":"5.70"}},{"type":"Feature","id":283,"geometry":{"type":"Point","coordinates":[-103.75833,58.31014]},"properties":{"u":4.9999999999999996e-05,"ph":"6.40"}},{"type":"Feature","id":284,"geometry":{"type":"Point","coordinates":[-103.764,58.31397]},"properties":{"u":4.9999999999999996e-05,"ph":"6.70"}},{"type":"Feature","id":285,"geometry":{"type":"Point","coordinates":[-103.77119,58.3082]},"properties":{"u":4.9999999999999996e-05,"ph":"6.60"}},{"type":"Feature","id":286,"geometry":{"type":"Point","coordinates":[-103.77978,58.30181]},"properties":{"u":4.9999999999999996e-05,"ph":"6.40"}},{"type":"Feature","id":287,"geometry":{"type":"Point","coordinates":[-103.83109,58.29807]},"properties":{"u":4.9999999999999996e-05,"ph":"5.50"}},{"type":"Feature","id":288,"geometry":{"type":"Point","coordinates":[-103.91658,58.30835]},"properties":{"u":4.9999999999999996e-05,"ph":"5.90"}},{"type":"Feature","id":289,"geometry":{"type":"Point","coordinates":[-103.99411,58.27027]},"properties":{"u":4.9999999999999996e-05,"ph":"6.80"}},{"type":"Feature","id":290,"geometry":{"type":"Point","coordinates":[-103.98559,58.27622]},"properties":{"u":4.9999999999999996e-05,"ph":"6.70"}},{"type":"Feature","id":291,"geometry":{"type":"Point","coordinates":[-103.96349,58.28574]},"properties":{"u":4.9999999999999996e-05,"ph":"6.80"}},{"type":"Feature","id":292,"geometry":{"type":"Point","coordinates":[-103.9591,58.29568]},"properties":{"u":4.9999999999999996e-05,"ph":"6.80"}},{"type":"Feature","id":293,"geometry":{"type":"Point","coordinates":[-103.95379,58.30794]},"properties":{"u":4.9999999999999996e-05,"ph":"7.00"}},{"type":"Feature","id":294,"geometry":{"type":"Point","coordinates":[-103.93178,58.30794]},"properties":{"u":4.9999999999999996e-05,"ph":"6.50"}},{"type":"Feature","id":295,"geometry":{"type":"Point","coordinates":[-103.9122,58.29537]},"properties":{"u":4.9999999999999996e-05,"ph":"6.00"}},{"type":"Feature","id":296,"geometry":{"type":"Point","coordinates":[-103.90824,58.29094]},"properties":{"u":4.9999999999999996e-05,"ph":"5.70"}},{"type":"Feature","id":297,"geometry":{"type":"Point","coordinates":[-103.86361,58.27366]},"properties":{"u":4.9999999999999996e-05,"ph":"6.70"}},{"type":"Feature","id":298,"geometry":{"type":"Point","coordinates":[-103.84799,58.28197]},"properties":{"u":4.9999999999999996e-05,"ph":"6.70"}},{"type":"Feature","id":299,"geometry":{"type":"Point","coordinates":[-103.82316,58.26962]},"properties":{"u":4.9999999999999996e-05,"ph":"5.90"}},{"type":"Feature","id":300,"geometry":{"type":"Point","coordinates":[-103.81443,58.2707]},"properties":{"u":4.9999999999999996e-05,"ph":"5.80"}},{"type":"Feature","id":301,"geometry":{"type":"Point","coordinates":[-103.80973,58.28386]},"properties":{"u":4.9999999999999996e-05,"ph":"6.60"}},{"type":"Feature","id":302,"geometry":{"type":"Point","coordinates":[-103.81438,58.28768]},"properties":{"u":4.9999999999999996e-05,"ph":"6.50"}},{"type":"Feature","id":303,"geometry":{"type":"Point","coordinates":[-103.79492,58.29307]},"properties":{"u":4.9999999999999996e-05,"ph":"6.90"}},{"type":"Feature","id":304,"geometry":{"type":"Point","coordinates":[-103.77637,58.27699]},"properties":{"u":4.9999999999999996e-05,"ph":"5.70"}},{"type":"Feature","id":305,"geometry":{"type":"Point","coordinates":[-103.74425,58.29312]},"properties":{"u":4.9999999999999996e-05,"ph":"6.60"}},{"type":"Feature","id":306,"geometry":{"type":"Point","coordinates":[-103.73765,58.28694]},"properties":{"u":4.9999999999999996e-05,"ph":"5.20"}},{"type":"Feature","id":307,"geometry":{"type":"Point","coordinates":[-103.71658,58.28467]},"properties":{"u":4.9999999999999996e-05,"ph":"6.50"}},{"type":"Feature","id":308,"geometry":{"type":"Point","coordinates":[-103.69372,58.28013]},"properties":{"u":4.9999999999999996e-05,"ph":"6.60"}},{"type":"Feature","id":309,"geometry":{"type":"Point","coordinates":[-103.67913,58.27351]},"properties":{"u":4.9999999999999996e-05,"ph":"6.80"}},{"type":"Feature","id":310,"geometry":{"type":"Point","coordinates":[-103.65881,58.24734]},"properties":{"u":4.9999999999999996e-05,"ph":"4.80"}},{"type":"Feature","id":311,"geometry":{"type":"Point","coordinates":[-103.7194,58.24445]},"properties":{"u":4.9999999999999996e-05,"ph":"5.90"}},{"type":"Feature","id":312,"geometry":{"type":"Point","coordinates":[-103.75859,58.24897]},"properties":{"u":4.9999999999999996e-05,"ph":"5.60"}},{"type":"Feature","id":313,"geometry":{"type":"Point","coordinates":[-103.76853,58.25221]},"properties":{"u":4.9999999999999996e-05,"ph":"5.40"}},{"type":"Feature","id":314,"geometry":{"type":"Point","coordinates":[-103.77527,58.25937]},"properties":{"u":4.9999999999999996e-05,"ph":"5.10"}},{"type":"Feature","id":315,"geometry":{"type":"Point","coordinates":[-103.79627,58.25338]},"properties":{"u":4.9999999999999996e-05,"ph":"5.40"}},{"type":"Feature","id":316,"geometry":{"type":"Point","coordinates":[-103.80321,58.24949]},"properties":{"u":4.9999999999999996e-05,"ph":"5.70"}},{"type":"Feature","id":317,"geometry":{"type":"Point","coordinates":[-103.82908,58.25566]},"properties":{"u":4.9999999999999996e-05,"ph":"5.80"}},{"type":"Feature","id":318,"geometry":{"type":"Point","coordinates":[-103.83378,58.26289]},"properties":{"u":4.9999999999999996e-05,"ph":"6.20"}},{"type":"Feature","id":319,"geometry":{"type":"Point","coordinates":[-103.86717,58.26337]},"properties":{"u":4.9999999999999996e-05,"ph":"6.70"}},{"type":"Feature","id":320,"geometry":{"type":"Point","coordinates":[-103.89119,58.24139]},"properties":{"u":4.9999999999999996e-05,"ph":"6.00"}},{"type":"Feature","id":321,"geometry":{"type":"Point","coordinates":[-103.90101,58.2545]},"properties":{"u":4.9999999999999996e-05,"ph":"6.80"}},{"type":"Feature","id":322,"geometry":{"type":"Point","coordinates":[-103.90659,58.26155]},"properties":{"u":4.9999999999999996e-05,"ph":"6.40"}},{"type":"Feature","id":323,"geometry":{"type":"Point","coordinates":[-103.92156,58.25665]},"properties":{"u":4.9999999999999996e-05,"ph":"6.40"}},{"type":"Feature","id":324,"geometry":{"type":"Point","coordinates":[-103.96455,58.23778]},"properties":{"u":4.9999999999999996e-05,"ph":"5.90"}},{"type":"Feature","id":325,"geometry":{"type":"Point","coordinates":[-103.9647,58.25009]},"properties":{"u":4.9999999999999996e-05,"ph":"6.40"}},{"type":"Feature","id":326,"geometry":{"type":"Point","coordinates":[-103.98537,58.26014]},"properties":{"u":4.9999999999999996e-05,"ph":"6.30"}},{"type":"Feature","id":327,"geometry":{"type":"Point","coordinates":[-103.97732,58.26753]},"properties":{"u":4.9999999999999996e-05,"ph":"6.60"}},{"type":"Feature","id":328,"geometry":{"type":"Point","coordinates":[-103.98015,58.21617]},"properties":{"u":4.9999999999999996e-05,"ph":"6.30"}},{"type":"Feature","id":329,"geometry":{"type":"Point","coordinates":[-103.99068,58.13326]},"properties":{"u":4.9999999999999996e-05,"ph":"6.90"}},{"type":"Feature","id":330,"geometry":{"type":"Point","coordinates":[-103.96313,58.13438]},"properties":{"u":4.9999999999999996e-05,"ph":"6.50"}},{"type":"Feature","id":331,"geometry":{"type":"Point","coordinates":[-103.94956,58.13382]},"properties":{"u":4.9999999999999996e-05,"ph":"6.50"}},{"type":"Feature","id":332,"geometry":{"type":"Point","coordinates":[-103.93533,58.14413]},"properties":{"u":4.9999999999999996e-05,"ph":"6.50"}},{"type":"Feature","id":333,"geometry":{"type":"Point","coordinates":[-103.93724,58.15402]},"properties":{"u":4.9999999999999996e-05,"ph":"5.70"}},{"type":"Feature","id":334,"geometry":{"type":"Point","coordinates":[-103.89346,58.14125]},"properties":{"u":4.9999999999999996e-05,"ph":"5.80"}},{"type":"Feature","id":335,"geometry":{"type":"Point","coordinates":[-103.87905,58.14032]},"properties":{"u":4.9999999999999996e-05,"ph":"6.40"}},{"type":"Feature","id":336,"geometry":{"type":"Point","coordinates":[-103.87751,58.1298]},"properties":{"u":4.9999999999999996e-05,"ph":"6.20"}},{"type":"Feature","id":337,"geometry":{"type":"Point","coordinates":[-103.75413,58.14284]},"properties":{"u":4.9999999999999996e-05,"ph":"6.50"}},{"type":"Feature","id":338,"geometry":{"type":"Point","coordinates":[-103.68146,58.14642]},"properties":{"u":0.00021999999999999998,"ph":"5.60"}},{"type":"Feature","id":339,"geometry":{"type":"Point","coordinates":[-103.65546,58.20535]},"properties":{"u":0.10300000000000001,"ph":"7.20"}},{"type":"Feature","id":340,"geometry":{"type":"Point","coordinates":[-103.69256,58.20529]},"properties":{"u":0.37,"ph":"7.10"}},{"type":"Feature","id":341,"geometry":{"type":"Point","coordinates":[-103.70106,58.21939]},"properties":{"u":0.0038,"ph":"6.80"}},{"type":"Feature","id":342,"geometry":{"type":"Point","coordinates":[-103.72377,58.20812]},"properties":{"u":0.00057,"ph":"6.20"}},{"type":"Feature","id":343,"geometry":{"type":"Point","coordinates":[-103.745,58.20456]},"properties":{"u":0.0018299999999999998,"ph":"6.00"}},{"type":"Feature","id":344,"geometry":{"type":"Point","coordinates":[-103.75876,58.20011]},"properties":{"u":0.00014,"ph":"6.70"}},{"type":"Feature","id":345,"geometry":{"type":"Point","coordinates":[-103.76015,58.18961]},"properties":{"u":0.00037,"ph":"7.00"}},{"type":"Feature","id":346,"geometry":{"type":"Point","coordinates":[-103.75166,58.17938]},"properties":{"u":0.00114,"ph":"6.90"}},{"type":"Feature","id":347,"geometry":{"type":"Point","coordinates":[-103.78427,58.17062]},"properties":{"u":0.0005099999999999999,"ph":"6.70"}},{"type":"Feature","id":348,"geometry":{"type":"Point","coordinates":[-103.80791,58.16546]},"properties":{"u":0.00041,"ph":"6.20"}},{"type":"Feature","id":349,"geometry":{"type":"Point","coordinates":[-103.81957,58.16745]},"properties":{"u":0.0007,"ph":"6.70"}},{"type":"Feature","id":350,"geometry":{"type":"Point","coordinates":[-103.83555,58.16751]},"properties":{"u":4.9999999999999996e-05,"ph":"6.70"}},{"type":"Feature","id":351,"geometry":{"type":"Point","coordinates":[-103.83169,58.17106]},"properties":{"u":0.00033999999999999997,"ph":"6.50"}},{"type":"Feature","id":352,"geometry":{"type":"Point","coordinates":[-103.82537,58.18215]},"properties":{"u":4.9999999999999996e-05,"ph":"6.50"}},{"type":"Feature","id":353,"geometry":{"type":"Point","coordinates":[-103.80436,58.17494]},"properties":{"u":0.00052,"ph":"6.60"}},{"type":"Feature","id":354,"geometry":{"type":"Point","coordinates":[-103.78991,58.17481]},"properties":{"u":0.0012000000000000001,"ph":"6.50"}},{"type":"Feature","id":355,"geometry":{"type":"Point","coordinates":[-103.79112,58.17931]},"properties":{"u":0.0004,"ph":"5.40"}},{"type":"Feature","id":356,"geometry":{"type":"Point","coordinates":[-103.78967,58.18702]},"properties":{"u":0.00056,"ph":"6.90"}},{"type":"Feature","id":357,"geometry":{"type":"Point","coordinates":[-103.85665,58.20372]},"properties":{"u":0.00015999999999999999,"ph":"6.70"}},{"type":"Feature","id":358,"geometry":{"type":"Point","coordinates":[-103.84914,58.19925]},"properties":{"u":4.9999999999999996e-05,"ph":"6.60"}},{"type":"Feature","id":359,"geometry":{"type":"Point","coordinates":[-103.83311,58.21069]},"properties":{"u":4.9999999999999996e-05,"ph":"6.80"}},{"type":"Feature","id":360,"geometry":{"type":"Point","coordinates":[-103.82917,58.20634]},"properties":{"u":4.9999999999999996e-05,"ph":"6.60"}},{"type":"Feature","id":361,"geometry":{"type":"Point","coordinates":[-103.80729,58.19895]},"properties":{"u":4.9999999999999996e-05,"ph":"6.60"}},{"type":"Feature","id":362,"geometry":{"type":"Point","coordinates":[-103.81219,58.21041]},"properties":{"u":4.9999999999999996e-05,"ph":"6.70"}},{"type":"Feature","id":363,"geometry":{"type":"Point","coordinates":[-103.79683,58.2117]},"properties":{"u":4.9999999999999996e-05,"ph":"6.60"}},{"type":"Feature","id":364,"geometry":{"type":"Point","coordinates":[-103.78778,58.20748]},"properties":{"u":4.9999999999999996e-05,"ph":"6.90"}},{"type":"Feature","id":365,"geometry":{"type":"Point","coordinates":[-103.76741,58.21573]},"properties":{"u":4.9999999999999996e-05,"ph":"6.80"}},{"type":"Feature","id":366,"geometry":{"type":"Point","coordinates":[-103.78678,58.21673]},"properties":{"u":4.9999999999999996e-05,"ph":"6.60"}},{"type":"Feature","id":367,"geometry":{"type":"Point","coordinates":[-103.79894,58.2349]},"properties":{"u":4.9999999999999996e-05,"ph":"6.70"}},{"type":"Feature","id":368,"geometry":{"type":"Point","coordinates":[-103.78291,58.23052]},"properties":{"u":4.9999999999999996e-05,"ph":"6.40"}},{"type":"Feature","id":369,"geometry":{"type":"Point","coordinates":[-103.79592,58.23837]},"properties":{"u":4.9999999999999996e-05,"ph":"6.00"}},{"type":"Feature","id":370,"geometry":{"type":"Point","coordinates":[-103.80513,58.23298]},"properties":{"u":4.9999999999999996e-05,"ph":"6.50"}},{"type":"Feature","id":371,"geometry":{"type":"Point","coordinates":[-103.81206,58.23457]},"properties":{"u":4.9999999999999996e-05,"ph":"5.80"}},{"type":"Feature","id":372,"geometry":{"type":"Point","coordinates":[-103.82348,58.22929]},"properties":{"u":4.9999999999999996e-05,"ph":"6.30"}},{"type":"Feature","id":373,"geometry":{"type":"Point","coordinates":[-103.84686,58.22761]},"properties":{"u":4.9999999999999996e-05,"ph":"5.90"}},{"type":"Feature","id":374,"geometry":{"type":"Point","coordinates":[-104.06137,58.31183]},"properties":{"u":7.999999999999999e-05,"ph":" "}},{"type":"Feature","id":375,"geometry":{"type":"Point","coordinates":[-104.05305,58.31662]},"properties":{"u":0,"ph":" "}},{"type":"Feature","id":376,"geometry":{"type":"Point","coordinates":[-104.04392,58.32625]},"properties":{"u":0,"ph":" "}},{"type":"Feature","id":377,"geometry":{"type":"Point","coordinates":[-104.03439,58.33121]},"properties":{"u":0,"ph":" "}},{"type":"Feature","id":378,"geometry":{"type":"Point","coordinates":[-104.0488,58.33527]},"properties":{"u":0,"ph":" "}},{"type":"Feature","id":379,"geometry":{"type":"Point","coordinates":[-104.05421,58.32435]},"properties":{"u":0,"ph":" "}},{"type":"Feature","id":380,"geometry":{"type":"Point","coordinates":[-104.06337,58.32666]},"properties":{"u":0,"ph":" "}},{"type":"Feature","id":381,"geometry":{"type":"Point","coordinates":[-104.0645,58.32263]},"properties":{"u":0,"ph":" "}},{"type":"Feature","id":382,"geometry":{"type":"Point","coordinates":[-104.07071,58.31369]},"properties":{"u":7e-05,"ph":" "}},{"type":"Feature","id":383,"geometry":{"type":"Point","coordinates":[-104.08154,58.30443]},"properties":{"u":0,"ph":" "}},{"type":"Feature","id":384,"geometry":{"type":"Point","coordinates":[-104.09072,58.29901]},"properties":{"u":0.0001,"ph":" "}},{"type":"Feature","id":385,"geometry":{"type":"Point","coordinates":[-104.08596,58.29808]},"properties":{"u":7.999999999999999e-05,"ph":" "}},{"type":"Feature","id":386,"geometry":{"type":"Point","coordinates":[-104.13127,58.31501]},"properties":{"u":7.999999999999999e-05,"ph":" "}},{"type":"Feature","id":387,"geometry":{"type":"Point","coordinates":[-104.11214,58.32943]},"properties":{"u":0,"ph":" "}},{"type":"Feature","id":388,"geometry":{"type":"Point","coordinates":[-104.12045,58.33838]},"properties":{"u":0,"ph":" "}},{"type":"Feature","id":389,"geometry":{"type":"Point","coordinates":[-104.13576,58.34109]},"properties":{"u":0,"ph":" "}},{"type":"Feature","id":390,"geometry":{"type":"Point","coordinates":[-104.14914,58.35286]},"properties":{"u":0,"ph":" "}},{"type":"Feature","id":391,"geometry":{"type":"Point","coordinates":[-104.17326,58.34439]},"properties":{"u":0,"ph":" "}},{"type":"Feature","id":392,"geometry":{"type":"Point","coordinates":[-104.17483,58.32833]},"properties":{"u":7.999999999999999e-05,"ph":" "}},{"type":"Feature","id":393,"geometry":{"type":"Point","coordinates":[-104.18659,58.31448]},"properties":{"u":0,"ph":" "}},{"type":"Feature","id":394,"geometry":{"type":"Point","coordinates":[-104.20006,58.3301]},"properties":{"u":0,"ph":" "}},{"type":"Feature","id":395,"geometry":{"type":"Point","coordinates":[-104.21444,58.33621]},"properties":{"u":0,"ph":" "}},{"type":"Feature","id":396,"geometry":{"type":"Point","coordinates":[-104.21122,58.35056]},"properties":{"u":7e-05,"ph":" "}},{"type":"Feature","id":397,"geometry":{"type":"Point","coordinates":[-104.17943,58.37282]},"properties":{"u":0,"ph":" "}},{"type":"Feature","id":398,"geometry":{"type":"Point","coordinates":[-104.02715,58.31516]},"properties":{"u":7.999999999999999e-05,"ph":" "}},{"type":"Feature","id":399,"geometry":{"type":"Point","coordinates":[-104.0418,58.29102]},"properties":{"u":7.999999999999999e-05,"ph":" "}},{"type":"Feature","id":400,"geometry":{"type":"Point","coordinates":[-104.1073,58.29778]},"properties":{"u":7.999999999999999e-05,"ph":" "}},{"type":"Feature","id":401,"geometry":{"type":"Point","coordinates":[-104.10298,58.28626]},"properties":{"u":7.999999999999999e-05,"ph":" "}},{"type":"Feature","id":402,"geometry":{"type":"Point","coordinates":[-104.0814,58.26374]},"properties":{"u":7e-05,"ph":" "}},{"type":"Feature","id":403,"geometry":{"type":"Point","coordinates":[-104.11909,58.25583]},"properties":{"u":8.999999999999999e-05,"ph":" "}},{"type":"Feature","id":404,"geometry":{"type":"Point","coordinates":[-104.16994,58.28195]},"properties":{"u":7e-05,"ph":" "}},{"type":"Feature","id":405,"geometry":{"type":"Point","coordinates":[-104.21117,58.25311]},"properties":{"u":7e-05,"ph":" "}},{"type":"Feature","id":406,"geometry":{"type":"Point","coordinates":[-104.15928,58.19215]},"properties":{"u":7.999999999999999e-05,"ph":" "}},{"type":"Feature","id":407,"geometry":{"type":"Point","coordinates":[-104.12742,58.22876]},"properties":{"u":7.999999999999999e-05,"ph":" "}},{"type":"Feature","id":408,"geometry":{"type":"Point","coordinates":[-104.08569,58.22937]},"properties":{"u":7e-05,"ph":" "}},{"type":"Feature","id":409,"geometry":{"type":"Point","coordinates":[-104.03608,58.21885]},"properties":{"u":7e-05,"ph":" "}},{"type":"Feature","id":410,"geometry":{"type":"Point","coordinates":[-104.02556,58.15563]},"properties":{"u":0,"ph":" "}},{"type":"Feature","id":411,"geometry":{"type":"Point","coordinates":[-104.01685,58.15107]},"properties":{"u":0,"ph":" "}},{"type":"Feature","id":412,"geometry":{"type":"Point","coordinates":[-104.02674,58.14342]},"properties":{"u":0,"ph":" "}},{"type":"Feature","id":413,"geometry":{"type":"Point","coordinates":[-104.02461,58.12831]},"properties":{"u":0,"ph":" "}},{"type":"Feature","id":414,"geometry":{"type":"Point","coordinates":[-104.24683,58.17832]},"properties":{"u":0,"ph":" "}},{"type":"Feature","id":415,"geometry":{"type":"Point","coordinates":[-104.24461,58.20301]},"properties":{"u":0.0001,"ph":" "}},{"type":"Feature","id":416,"geometry":{"type":"Point","coordinates":[-104.08501,58.12337]},"properties":{"u":0.0002,"ph":" "}},{"type":"Feature","id":417,"geometry":{"type":"Point","coordinates":[-104.13866,58.16533]},"properties":{"u":0.00013,"ph":" "}},{"type":"Feature","id":418,"geometry":{"type":"Point","coordinates":[-104.06648,58.18288]},"properties":{"u":8.999999999999999e-05,"ph":" "}},{"type":"Feature","id":419,"geometry":{"type":"Point","coordinates":[-104.03534,58.18355]},"properties":{"u":8.999999999999999e-05,"ph":" "}},{"type":"Feature","id":420,"geometry":{"type":"Point","coordinates":[-104.09072,58.29901]},"properties":{"u":4.9999999999999996e-05,"ph":"6.60"}},{"type":"Feature","id":421,"geometry":{"type":"Point","coordinates":[-104.07054,58.31387]},"properties":{"u":4.9999999999999996e-05,"ph":"6.50"}},{"type":"Feature","id":422,"geometry":{"type":"Point","coordinates":[-104.05468,58.32597]},"properties":{"u":4.9999999999999996e-05,"ph":"6.30"}},{"type":"Feature","id":423,"geometry":{"type":"Point","coordinates":[-104.0459,58.33507]},"properties":{"u":4.9999999999999996e-05,"ph":"6.30"}},{"type":"Feature","id":424,"geometry":{"type":"Point","coordinates":[-104.05306,58.31626]},"properties":{"u":4.9999999999999996e-05,"ph":"6.20"}},{"type":"Feature","id":425,"geometry":{"type":"Point","coordinates":[-104.06145,58.30913]},"properties":{"u":4.9999999999999996e-05,"ph":"6.20"}},{"type":"Feature","id":426,"geometry":{"type":"Point","coordinates":[-104.05191,58.30188]},"properties":{"u":4.9999999999999996e-05,"ph":"5.80"}},{"type":"Feature","id":427,"geometry":{"type":"Point","coordinates":[-104.02722,58.30016]},"properties":{"u":4.9999999999999996e-05,"ph":"6.40"}},{"type":"Feature","id":428,"geometry":{"type":"Point","coordinates":[-104.0112,58.30561]},"properties":{"u":4.9999999999999996e-05,"ph":"6.40"}},{"type":"Feature","id":429,"geometry":{"type":"Point","coordinates":[-104.0202,58.3258]},"properties":{"u":4.9999999999999996e-05,"ph":"6.40"}},{"type":"Feature","id":430,"geometry":{"type":"Point","coordinates":[-104.0161,58.33798]},"properties":{"u":4.9999999999999996e-05,"ph":"6.20"}},{"type":"Feature","id":431,"geometry":{"type":"Point","coordinates":[-104.01654,58.35308]},"properties":{"u":4.9999999999999996e-05,"ph":"5.90"}},{"type":"Feature","id":432,"geometry":{"type":"Point","coordinates":[-104.00376,58.36385]},"properties":{"u":4.9999999999999996e-05,"ph":"5.40"}},{"type":"Feature","id":433,"geometry":{"type":"Point","coordinates":[-104.00971,58.37108]},"properties":{"u":4.9999999999999996e-05,"ph":"6.00"}},{"type":"Feature","id":434,"geometry":{"type":"Point","coordinates":[-104.01617,58.36637]},"properties":{"u":4.9999999999999996e-05,"ph":"6.40"}},{"type":"Feature","id":435,"geometry":{"type":"Point","coordinates":[-104.02432,58.36221]},"properties":{"u":4.9999999999999996e-05,"ph":"6.20"}},{"type":"Feature","id":436,"geometry":{"type":"Point","coordinates":[-104.03479,58.35402]},"properties":{"u":4.9999999999999996e-05,"ph":"6.40"}},{"type":"Feature","id":437,"geometry":{"type":"Point","coordinates":[-104.07256,58.32772]},"properties":{"u":4.9999999999999996e-05,"ph":"6.60"}},{"type":"Feature","id":438,"geometry":{"type":"Point","coordinates":[-104.09749,58.31433]},"properties":{"u":4.9999999999999996e-05,"ph":"7.10"}},{"type":"Feature","id":439,"geometry":{"type":"Point","coordinates":[-104.10109,58.34058]},"properties":{"u":4.9999999999999996e-05,"ph":"5.80"}},{"type":"Feature","id":440,"geometry":{"type":"Point","coordinates":[-104.0956,58.35519]},"properties":{"u":4.9999999999999996e-05,"ph":"6.00"}},{"type":"Feature","id":441,"geometry":{"type":"Point","coordinates":[-104.08953,58.35209]},"properties":{"u":4.9999999999999996e-05,"ph":"5.30"}},{"type":"Feature","id":442,"geometry":{"type":"Point","coordinates":[-104.05354,58.34967]},"properties":{"u":4.9999999999999996e-05,"ph":"6.80"}},{"type":"Feature","id":443,"geometry":{"type":"Point","coordinates":[-104.04777,58.3543]},"properties":{"u":4.9999999999999996e-05,"ph":"6.60"}},{"type":"Feature","id":444,"geometry":{"type":"Point","coordinates":[-104.03535,58.3649]},"properties":{"u":4.9999999999999996e-05,"ph":"6.60"}},{"type":"Feature","id":445,"geometry":{"type":"Point","coordinates":[-104.05485,58.36432]},"properties":{"u":4.9999999999999996e-05,"ph":"5.90"}},{"type":"Feature","id":446,"geometry":{"type":"Point","coordinates":[-104.06402,58.37319]},"properties":{"u":4.9999999999999996e-05,"ph":"6.50"}},{"type":"Feature","id":447,"geometry":{"type":"Point","coordinates":[-104.07491,58.3686]},"properties":{"u":4.9999999999999996e-05,"ph":"6.60"}},{"type":"Feature","id":448,"geometry":{"type":"Point","coordinates":[-104.11007,58.37101]},"properties":{"u":4.9999999999999996e-05,"ph":"5.70"}},{"type":"Feature","id":449,"geometry":{"type":"Point","coordinates":[-104.13967,58.36995]},"properties":{"u":4.9999999999999996e-05,"ph":"5.70"}},{"type":"Feature","id":450,"geometry":{"type":"Point","coordinates":[-104.15963,58.35724]},"properties":{"u":4.9999999999999996e-05,"ph":"6.40"}},{"type":"Feature","id":451,"geometry":{"type":"Point","coordinates":[-104.18913,58.35986]},"properties":{"u":4.9999999999999996e-05,"ph":"6.60"}},{"type":"Feature","id":452,"geometry":{"type":"Point","coordinates":[-104.17849,58.37649]},"properties":{"u":4.9999999999999996e-05,"ph":"6.40"}},{"type":"Feature","id":453,"geometry":{"type":"Point","coordinates":[-104.19401,58.37102]},"properties":{"u":4.9999999999999996e-05,"ph":"6.50"}},{"type":"Feature","id":454,"geometry":{"type":"Point","coordinates":[-104.23078,58.37008]},"properties":{"u":4.9999999999999996e-05,"ph":"6.60"}},{"type":"Feature","id":455,"geometry":{"type":"Point","coordinates":[-104.24426,58.36334]},"properties":{"u":4.9999999999999996e-05,"ph":"6.30"}},{"type":"Feature","id":456,"geometry":{"type":"Point","coordinates":[-104.24415,58.34447]},"properties":{"u":4.9999999999999996e-05,"ph":"6.20"}},{"type":"Feature","id":457,"geometry":{"type":"Point","coordinates":[-104.23048,58.34475]},"properties":{"u":4.9999999999999996e-05,"ph":"6.40"}},{"type":"Feature","id":458,"geometry":{"type":"Point","coordinates":[-104.22385,58.31193]},"properties":{"u":4.9999999999999996e-05,"ph":"6.90"}},{"type":"Feature","id":459,"geometry":{"type":"Point","coordinates":[-104.23912,58.30016]},"properties":{"u":4.9999999999999996e-05,"ph":"5.90"}},{"type":"Feature","id":460,"geometry":{"type":"Point","coordinates":[-104.20837,58.30222]},"properties":{"u":4.9999999999999996e-05,"ph":"7.00"}},{"type":"Feature","id":461,"geometry":{"type":"Point","coordinates":[-104.18984,58.29151]},"properties":{"u":4.9999999999999996e-05,"ph":"6.60"}},{"type":"Feature","id":462,"geometry":{"type":"Point","coordinates":[-104.17802,58.29368]},"properties":{"u":4.9999999999999996e-05,"ph":"6.60"}},{"type":"Feature","id":463,"geometry":{"type":"Point","coordinates":[-104.18583,58.30271]},"properties":{"u":4.9999999999999996e-05,"ph":"6.60"}},{"type":"Feature","id":464,"geometry":{"type":"Point","coordinates":[-104.11298,58.28884]},"properties":{"u":4.9999999999999996e-05,"ph":"6.70"}},{"type":"Feature","id":465,"geometry":{"type":"Point","coordinates":[-104.12464,58.28623]},"properties":{"u":4.9999999999999996e-05,"ph":"6.80"}},{"type":"Feature","id":466,"geometry":{"type":"Point","coordinates":[-104.13973,58.31112]},"properties":{"u":4.9999999999999996e-05,"ph":"6.20"}},{"type":"Feature","id":467,"geometry":{"type":"Point","coordinates":[-104.14889,58.30624]},"properties":{"u":4.9999999999999996e-05,"ph":"6.30"}},{"type":"Feature","id":468,"geometry":{"type":"Point","coordinates":[-104.15401,58.31337]},"properties":{"u":4.9999999999999996e-05,"ph":"6.40"}},{"type":"Feature","id":469,"geometry":{"type":"Point","coordinates":[-104.16658,58.31606]},"properties":{"u":4.9999999999999996e-05,"ph":"6.60"}},{"type":"Feature","id":470,"geometry":{"type":"Point","coordinates":[-104.17011,58.28204]},"properties":{"u":4.9999999999999996e-05,"ph":"6.50"}},{"type":"Feature","id":471,"geometry":{"type":"Point","coordinates":[-104.20365,58.2845]},"properties":{"u":4.9999999999999996e-05,"ph":"6.00"}},{"type":"Feature","id":472,"geometry":{"type":"Point","coordinates":[-104.22615,58.26937]},"properties":{"u":4.9999999999999996e-05,"ph":"6.20"}},{"type":"Feature","id":473,"geometry":{"type":"Point","coordinates":[-104.21411,58.26642]},"properties":{"u":4.9999999999999996e-05,"ph":"6.60"}},{"type":"Feature","id":474,"geometry":{"type":"Point","coordinates":[-104.20494,58.26466]},"properties":{"u":4.9999999999999996e-05,"ph":"6.60"}},{"type":"Feature","id":475,"geometry":{"type":"Point","coordinates":[-104.219,58.26106]},"properties":{"u":4.9999999999999996e-05,"ph":"6.60"}},{"type":"Feature","id":476,"geometry":{"type":"Point","coordinates":[-104.23957,58.24762]},"properties":{"u":4.9999999999999996e-05,"ph":"6.40"}},{"type":"Feature","id":477,"geometry":{"type":"Point","coordinates":[-104.24213,58.23919]},"properties":{"u":4.9999999999999996e-05,"ph":"6.40"}},{"type":"Feature","id":478,"geometry":{"type":"Point","coordinates":[-104.22468,58.24304]},"properties":{"u":4.9999999999999996e-05,"ph":"6.60"}},{"type":"Feature","id":479,"geometry":{"type":"Point","coordinates":[-104.22982,58.22583]},"properties":{"u":4.9999999999999996e-05,"ph":"6.70"}},{"type":"Feature","id":480,"geometry":{"type":"Point","coordinates":[-104.24483,58.21648]},"properties":{"u":4.9999999999999996e-05,"ph":"6.80"}},{"type":"Feature","id":481,"geometry":{"type":"Point","coordinates":[-104.19814,58.22626]},"properties":{"u":4.9999999999999996e-05,"ph":"6.20"}},{"type":"Feature","id":482,"geometry":{"type":"Point","coordinates":[-104.19204,58.23996]},"properties":{"u":4.9999999999999996e-05,"ph":"6.90"}},{"type":"Feature","id":483,"geometry":{"type":"Point","coordinates":[-104.15341,58.21717]},"properties":{"u":4.9999999999999996e-05,"ph":"6.00"}},{"type":"Feature","id":484,"geometry":{"type":"Point","coordinates":[-104.15361,58.23019]},"properties":{"u":4.9999999999999996e-05,"ph":"5.30"}},{"type":"Feature","id":485,"geometry":{"type":"Point","coordinates":[-104.16575,58.2353]},"properties":{"u":4.9999999999999996e-05,"ph":"6.40"}},{"type":"Feature","id":486,"geometry":{"type":"Point","coordinates":[-104.16364,58.24535]},"properties":{"u":4.9999999999999996e-05,"ph":"6.60"}},{"type":"Feature","id":487,"geometry":{"type":"Point","coordinates":[-104.15668,58.25168]},"properties":{"u":4.9999999999999996e-05,"ph":"6.50"}},{"type":"Feature","id":488,"geometry":{"type":"Point","coordinates":[-104.14968,58.25217]},"properties":{"u":4.9999999999999996e-05,"ph":"6.60"}},{"type":"Feature","id":489,"geometry":{"type":"Point","coordinates":[-104.16702,58.26127]},"properties":{"u":4.9999999999999996e-05,"ph":"6.20"}},{"type":"Feature","id":490,"geometry":{"type":"Point","coordinates":[-104.16663,58.27052]},"properties":{"u":4.9999999999999996e-05,"ph":"5.20"}},{"type":"Feature","id":491,"geometry":{"type":"Point","coordinates":[-104.14977,58.26969]},"properties":{"u":4.9999999999999996e-05,"ph":"5.60"}},{"type":"Feature","id":492,"geometry":{"type":"Point","coordinates":[-104.13849,58.27105]},"properties":{"u":4.9999999999999996e-05,"ph":"6.50"}},{"type":"Feature","id":493,"geometry":{"type":"Point","coordinates":[-104.14505,58.27442]},"properties":{"u":4.9999999999999996e-05,"ph":"6.30"}},{"type":"Feature","id":494,"geometry":{"type":"Point","coordinates":[-104.14071,58.27789]},"properties":{"u":4.9999999999999996e-05,"ph":"6.60"}},{"type":"Feature","id":495,"geometry":{"type":"Point","coordinates":[-104.12909,58.25805]},"properties":{"u":4.9999999999999996e-05,"ph":"6.10"}},{"type":"Feature","id":496,"geometry":{"type":"Point","coordinates":[-104.1222,58.25414]},"properties":{"u":4.9999999999999996e-05,"ph":"6.50"}},{"type":"Feature","id":497,"geometry":{"type":"Point","coordinates":[-104.09147,58.26983]},"properties":{"u":4.9999999999999996e-05,"ph":"6.20"}},{"type":"Feature","id":498,"geometry":{"type":"Point","coordinates":[-104.05967,58.28595]},"properties":{"u":4.9999999999999996e-05,"ph":"5.70"}},{"type":"Feature","id":499,"geometry":{"type":"Point","coordinates":[-104.04449,58.27972]},"properties":{"u":4.9999999999999996e-05,"ph":"6.30"}},{"type":"Feature","id":500,"geometry":{"type":"Point","coordinates":[-104.04998,58.27222]},"properties":{"u":4.9999999999999996e-05,"ph":"6.20"}},{"type":"Feature","id":501,"geometry":{"type":"Point","coordinates":[-104.04595,58.25081]},"properties":{"u":4.9999999999999996e-05,"ph":"6.30"}},{"type":"Feature","id":502,"geometry":{"type":"Point","coordinates":[-104.04516,58.24865]},"properties":{"u":4.9999999999999996e-05,"ph":"6.80"}},{"type":"Feature","id":503,"geometry":{"type":"Point","coordinates":[-104.07036,58.24264]},"properties":{"u":4.9999999999999996e-05,"ph":"6.60"}},{"type":"Feature","id":504,"geometry":{"type":"Point","coordinates":[-104.00638,58.25213]},"properties":{"u":4.9999999999999996e-05,"ph":"6.60"}},{"type":"Feature","id":505,"geometry":{"type":"Point","coordinates":[-104.01671,58.24835]},"properties":{"u":4.9999999999999996e-05,"ph":"6.50"}},{"type":"Feature","id":506,"geometry":{"type":"Point","coordinates":[-104.00622,58.24566]},"properties":{"u":4.9999999999999996e-05,"ph":"6.30"}},{"type":"Feature","id":507,"geometry":{"type":"Point","coordinates":[-104.0156,58.23935]},"properties":{"u":4.9999999999999996e-05,"ph":"6.20"}},{"type":"Feature","id":508,"geometry":{"type":"Point","coordinates":[-104.02391,58.2343]},"properties":{"u":4.9999999999999996e-05,"ph":"6.30"}},{"type":"Feature","id":509,"geometry":{"type":"Point","coordinates":[-104.00762,58.2322]},"properties":{"u":4.9999999999999996e-05,"ph":"6.10"}},{"type":"Feature","id":510,"geometry":{"type":"Point","coordinates":[-104.01841,58.22384]},"properties":{"u":4.9999999999999996e-05,"ph":"5.70"}},{"type":"Feature","id":511,"geometry":{"type":"Point","coordinates":[-104.0257,58.21868]},"properties":{"u":4.9999999999999996e-05,"ph":"5.90"}},{"type":"Feature","id":512,"geometry":{"type":"Point","coordinates":[-104.03439,58.21237]},"properties":{"u":4.9999999999999996e-05,"ph":"5.60"}},{"type":"Feature","id":513,"geometry":{"type":"Point","coordinates":[-104.00798,58.20723]},"properties":{"u":4.9999999999999996e-05,"ph":"6.40"}},{"type":"Feature","id":514,"geometry":{"type":"Point","coordinates":[-104.03188,58.19807]},"properties":{"u":4.9999999999999996e-05,"ph":"6.00"}},{"type":"Feature","id":515,"geometry":{"type":"Point","coordinates":[-104.03984,58.19939]},"properties":{"u":4.9999999999999996e-05,"ph":"6.50"}},{"type":"Feature","id":516,"geometry":{"type":"Point","coordinates":[-104.03015,58.2056]},"properties":{"u":4.9999999999999996e-05,"ph":"6.60"}},{"type":"Feature","id":517,"geometry":{"type":"Point","coordinates":[-104.04098,58.20757]},"properties":{"u":4.9999999999999996e-05,"ph":"5.50"}},{"type":"Feature","id":518,"geometry":{"type":"Point","coordinates":[-104.0367,58.22101]},"properties":{"u":4.9999999999999996e-05,"ph":"6.30"}},{"type":"Feature","id":519,"geometry":{"type":"Point","coordinates":[-104.05993,58.21822]},"properties":{"u":4.9999999999999996e-05,"ph":"5.50"}},{"type":"Feature","id":520,"geometry":{"type":"Point","coordinates":[-104.06954,58.22179]},"properties":{"u":4.9999999999999996e-05,"ph":"6.20"}},{"type":"Feature","id":521,"geometry":{"type":"Point","coordinates":[-104.0751,58.21734]},"properties":{"u":4.9999999999999996e-05,"ph":"5.90"}},{"type":"Feature","id":522,"geometry":{"type":"Point","coordinates":[-104.10263,58.21251]},"properties":{"u":4.9999999999999996e-05,"ph":"6.20"}},{"type":"Feature","id":523,"geometry":{"type":"Point","coordinates":[-104.11822,58.20849]},"properties":{"u":4.9999999999999996e-05,"ph":"6.00"}},{"type":"Feature","id":524,"geometry":{"type":"Point","coordinates":[-104.11913,58.2199]},"properties":{"u":4.9999999999999996e-05,"ph":"6.80"}},{"type":"Feature","id":525,"geometry":{"type":"Point","coordinates":[-104.13081,58.21567]},"properties":{"u":4.9999999999999996e-05,"ph":"6.50"}},{"type":"Feature","id":526,"geometry":{"type":"Point","coordinates":[-104.14081,58.21044]},"properties":{"u":4.9999999999999996e-05,"ph":"6.40"}},{"type":"Feature","id":527,"geometry":{"type":"Point","coordinates":[-104.1544,58.20424]},"properties":{"u":4.9999999999999996e-05,"ph":"6.50"}},{"type":"Feature","id":528,"geometry":{"type":"Point","coordinates":[-104.16989,58.21099]},"properties":{"u":4.9999999999999996e-05,"ph":"6.40"}},{"type":"Feature","id":529,"geometry":{"type":"Point","coordinates":[-104.19608,58.21187]},"properties":{"u":4.9999999999999996e-05,"ph":"6.70"}},{"type":"Feature","id":530,"geometry":{"type":"Point","coordinates":[-104.21102,58.21385]},"properties":{"u":4.9999999999999996e-05,"ph":"6.40"}},{"type":"Feature","id":531,"geometry":{"type":"Point","coordinates":[-104.22053,58.199]},"properties":{"u":4.9999999999999996e-05,"ph":"6.20"}},{"type":"Feature","id":532,"geometry":{"type":"Point","coordinates":[-104.20445,58.1804]},"properties":{"u":4.9999999999999996e-05,"ph":"6.10"}},{"type":"Feature","id":533,"geometry":{"type":"Point","coordinates":[-104.19418,58.17584]},"properties":{"u":4.9999999999999996e-05,"ph":"5.50"}},{"type":"Feature","id":534,"geometry":{"type":"Point","coordinates":[-104.16213,58.17231]},"properties":{"u":4.9999999999999996e-05,"ph":"6.10"}},{"type":"Feature","id":535,"geometry":{"type":"Point","coordinates":[-104.14367,58.17632]},"properties":{"u":4.9999999999999996e-05,"ph":"6.30"}},{"type":"Feature","id":536,"geometry":{"type":"Point","coordinates":[-104.11822,58.19465]},"properties":{"u":4.9999999999999996e-05,"ph":"6.00"}},{"type":"Feature","id":537,"geometry":{"type":"Point","coordinates":[-104.22733,58.16024]},"properties":{"u":4.9999999999999996e-05,"ph":"6.10"}},{"type":"Feature","id":538,"geometry":{"type":"Point","coordinates":[-104.25122,58.15562]},"properties":{"u":4.9999999999999996e-05,"ph":"6.10"}},{"type":"Feature","id":539,"geometry":{"type":"Point","coordinates":[-104.23265,58.15012]},"properties":{"u":4.9999999999999996e-05,"ph":"6.00"}},{"type":"Feature","id":540,"geometry":{"type":"Point","coordinates":[-104.2023,58.12452]},"properties":{"u":4.9999999999999996e-05,"ph":"6.40"}},{"type":"Feature","id":541,"geometry":{"type":"Point","coordinates":[-104.17712,58.1266]},"properties":{"u":4.9999999999999996e-05,"ph":"6.40"}},{"type":"Feature","id":542,"geometry":{"type":"Point","coordinates":[-104.16306,58.14699]},"properties":{"u":4.9999999999999996e-05,"ph":"6.50"}},{"type":"Feature","id":543,"geometry":{"type":"Point","coordinates":[-104.18377,58.14048]},"properties":{"u":4.9999999999999996e-05,"ph":"6.00"}},{"type":"Feature","id":544,"geometry":{"type":"Point","coordinates":[-104.20859,58.13929]},"properties":{"u":4.9999999999999996e-05,"ph":"6.10"}},{"type":"Feature","id":545,"geometry":{"type":"Point","coordinates":[-104.19059,58.15399]},"properties":{"u":4.9999999999999996e-05,"ph":"6.80"}},{"type":"Feature","id":546,"geometry":{"type":"Point","coordinates":[-104.18563,58.16295]},"properties":{"u":4.9999999999999996e-05,"ph":"5.90"}},{"type":"Feature","id":547,"geometry":{"type":"Point","coordinates":[-104.14174,58.16481]},"properties":{"u":4.9999999999999996e-05,"ph":"6.10"}},{"type":"Feature","id":548,"geometry":{"type":"Point","coordinates":[-104.12388,58.15822]},"properties":{"u":4.9999999999999996e-05,"ph":"6.30"}},{"type":"Feature","id":549,"geometry":{"type":"Point","coordinates":[-104.12331,58.12633]},"properties":{"u":4.9999999999999996e-05,"ph":"5.70"}},{"type":"Feature","id":550,"geometry":{"type":"Point","coordinates":[-104.09106,58.13904]},"properties":{"u":4.9999999999999996e-05,"ph":"5.80"}},{"type":"Feature","id":551,"geometry":{"type":"Point","coordinates":[-104.06933,58.13862]},"properties":{"u":4.9999999999999996e-05,"ph":"6.50"}},{"type":"Feature","id":552,"geometry":{"type":"Point","coordinates":[-104.05614,58.12999]},"properties":{"u":4.9999999999999996e-05,"ph":"6.00"}},{"type":"Feature","id":553,"geometry":{"type":"Point","coordinates":[-104.01472,58.148]},"properties":{"u":4.9999999999999996e-05,"ph":"6.40"}},{"type":"Feature","id":554,"geometry":{"type":"Point","coordinates":[-104.04829,58.15723]},"properties":{"u":4.9999999999999996e-05,"ph":"5.90"}},{"type":"Feature","id":555,"geometry":{"type":"Point","coordinates":[-104.0278,58.17298]},"properties":{"u":4.9999999999999996e-05,"ph":"6.50"}},{"type":"Feature","id":556,"geometry":{"type":"Point","coordinates":[-104.07429,58.17]},"properties":{"u":4.9999999999999996e-05,"ph":"6.60"}},{"type":"Feature","id":557,"geometry":{"type":"Point","coordinates":[-104.06804,58.18163]},"properties":{"u":4.9999999999999996e-05,"ph":"6.40"}},{"type":"Feature","id":558,"geometry":{"type":"Point","coordinates":[-104.07245,58.18867]},"properties":{"u":4.9999999999999996e-05,"ph":"6.00"}},{"type":"Feature","id":559,"geometry":{"type":"Point","coordinates":[-104.11194,58.17377]},"properties":{"u":4.9999999999999996e-05,"ph":"6.20"}},{"type":"Feature","id":560,"geometry":{"type":"Point","coordinates":[-104.10996,58.1849]},"properties":{"u":4.9999999999999996e-05,"ph":"6.30"}},{"type":"Feature","id":561,"geometry":{"type":"Point","coordinates":[-104.09928,58.18365]},"properties":{"u":4.9999999999999996e-05,"ph":"5.80"}},{"type":"Feature","id":562,"geometry":{"type":"Point","coordinates":[-104.09437,58.19592]},"properties":{"u":4.9999999999999996e-05,"ph":"6.20"}},{"type":"Feature","id":563,"geometry":{"type":"Point","coordinates":[-104.08486,58.20205]},"properties":{"u":4.9999999999999996e-05,"ph":"6.10"}},{"type":"Feature","id":564,"geometry":{"type":"Point","coordinates":[-104.09141,58.20551]},"properties":{"u":4.9999999999999996e-05,"ph":"5.90"}},{"type":"Feature","id":565,"geometry":{"type":"Point","coordinates":[-104.07692,58.2064]},"properties":{"u":4.9999999999999996e-05,"ph":"5.70"}}]}